{"type": "FeatureCollection", "features": [{"type": "Feature", "geometry": {"type": "Polygon", "coordinates": [[[-51.0588, -21.3986], [-51.0999, -21.3699], [-51.145, -21.3744], [-51.1641, -21.384], [-51.2141, -21.3548], [-51.2254, -21.342], [-51.2378, -21.3268], [-51.2863, -21.3193], [-51.3288, -21.2925], [-51.3361, -21.334], [-51.3651, -21.3693], [-51.3588, -21.4545], [-51.3879, -21.5272], [-51.3879, -21.5713], [-51.4138, -21.6429], [-51.4965, -21.7074], [-51.457, -21.7424], [-51.3946, -21.7448], [-51.3731, -21.741], [-51.343, -21.7746], [-51.2836, -21.7217], [-51.2418, -21.7363], [-51.2491, -21.7823], [-51.224, -21.8288], [-51.1825, -21.8333], [-51.1548, -21.8634], [-51.1402, -21.8569], [-51.1113, -21.8888], [-51.0827, -21.8818], [-51.0529, -21.8891], [-51.0042, -21.9205], [-50.9659, -21.9258], [-50.9379, -21.951], [-50.8647, -21.969], [-50.8139, -21.9514], [-50.7737, -21.9044], [-50.7371, -21.8776], [-50.7106, -21.8468], [-50.7184, -21.7995], [-50.6349, -21.7666], [-50.638, -21.7455], [-50.6096, -21.6897], [-50.6152, -21.6589], [-50.6474, -21.6499], [-50.6696, -21.6058], [-50.7343, -21.572], [-50.7798, -21.5678], [-50.7735, -21.5446], [-50.8092, -21.5601], [-50.8159, -21.5399], [-50.8681, -21.5263], [-50.8736, -21.4892], [-50.8978, -21.4907], [-50.9241, -21.4419], [-50.9849, -21.4328], [-50.993, -21.4371], [-51.0588, -21.3986]]]}, "properties": {"codarea": "35035", "nome": "Adamantina", "valores": {"2023": 28827.0}, "escolas": {"2023": 136}}}, {"type": "Feature", "geometry": {"type": "Polygon", "coordinates": [[[-49.5724, -21.2711], [-49.5177, -21.2281], [-49.5024, -21.2059], [-49.4615, -21.1962], [-49.4602, -21.1773], [-49.4422, -21.1889], [-49.3969, -21.1805], [-49.3772, -21.157], [-49.3418, -21.154], [-49.3163, -21.1271], [-49.2548, -21.1349], [-49.2269, -21.1245], [-49.1846, -21.1454], [-49.1533, -21.1847], [-49.1231, -21.1364], [-49.1199, -21.0852], [-49.1312, -21.0705], [-49.1111, -21.0271], [-49.1327, -20.9692], [-49.1091, -20.9395], [-49.101, -20.8587], [-49.079, -20.8118], [-49.0223, -20.8512], [-48.9841, -20.8485], [-48.9491, -20.8693], [-48.9201, -20.8133], [-48.8917, -20.8238], [-48.8421, -20.7722], [-48.8207, -20.7718], [-48.7924, -20.7253], [-48.7866, -20.6894], [-48.805, -20.6526], [-48.8407, -20.6519], [-48.8457, -20.625], [-48.8311, -20.5709], [-48.8522, -20.5448], [-48.8873, -20.4903], [-48.8865, -20.4369], [-48.9042, -20.4387], [-48.963, -20.4031], [-48.9658, -20.2793], [-48.972, -20.2078], [-48.986, -20.1708], [-49.0329, -20.1501], [-49.0659, -20.1535], [-49.1207, -20.2705], [-49.1836, -20.3147], [-49.2253, -20.3053], [-49.2597, -20.2588], [-49.2652, -20.2297], [-49.2992, -20.1671], [-49.3059, -20.1169], [-49.3073, -20.0603], [-49.2973, -20.0175], [-49.2483, -19.9996], [-49.2501, -19.9693], [-49.2975, -19.9605], [-49.3565, -19.9867], [-49.4538, -19.9781], [-49.4928, -19.9504], [-49.514, -19.9143], [-49.5515, -19.9058], [-49.6132, -19.92], [-49.5502, -20.0231], [-49.5508, -20.0677], [-49.5927, -20.0787], [-49.5991, -20.1164], [-49.6245, -20.1765], [-49.6544, -20.1705], [-49.6873, -20.2013], [-49.6868, -20.2235], [-49.6483, -20.26], [-49.6173, -20.3227], [-49.6631, -20.3623], [-49.6806, -20.3935], [-49.6811, -20.4288], [-49.7052, -20.4868], [-49.7514, -20.528], [-49.7903, -20.5283], [-49.8391, -20.5741], [-49.8707, -20.5907], [-49.8386, -20.6144], [-49.7915, -20.5926], [-49.7752, -20.6162], [-49.7088, -20.6367], [-49.649, -20.6903], [-49.6052, -20.7074], [-49.6259, -20.7577], [-49.5762, -20.7892], [-49.5631, -20.822], [-49.5734, -20.8639], [-49.6268, -20.88], [-49.635, -20.9717], [-49.696, -20.9657], [-49.7264, -20.9321], [-49.7924, -20.9341], [-49.8273, -20.9537], [-49.8508, -20.9319], [-49.8824, -20.9171], [-49.9231, -20.9204], [-49.957, -20.9069], [-49.9755, -20.9108], [-49.9937, -20.9498], [-50.0329, -20.9784], [-50.055, -20.9973], [-50.1095, -21.0731], [-50.1097, -21.1034], [-50.1513, -21.1399], [-50.1289, -21.1955], [-50.091, -21.2203], [-50.027, -21.2108], [-49.9916, -21.2267], [-49.9146, -21.2382], [-49.8565, -21.2603], [-49.8316, -21.275], [-49.7687, -21.3063], [-49.7461, -21.2968], [-49.7278, -21.3449], [-49.697, -21.3627], [-49.6284, -21.3544], [-49.5875, -21.3622], [-49.5724, -21.2711]]]}, "properties": {"codarea": "35004", "nome": "São José do Rio Preto", "valores": {"2023": 183499.0}, "escolas": {"2023": 597}}}, {"type": "Feature", "geometry": {"type": "Polygon", "coordinates": [[[-46.9822, -21.9677], [-47.0378, -21.9906], [-47.1071, -21.9757], [-47.1584, -21.9838], [-47.1955, -21.9737], [-47.1599, -21.9474], [-47.1946, -21.9145], [-47.1855, -21.8475], [-47.1866, -21.7904], [-47.2113, -21.7561], [-47.2409, -21.7579], [-47.2934, -21.7523], [-47.3469, -21.8065], [-47.36, -21.785], [-47.4248, -21.7557], [-47.4385, -21.7808], [-47.5242, -21.8023], [-47.5547, -21.8363], [-47.5517, -21.8546], [-47.5106, -21.8793], [-47.5119, -21.9359], [-47.545, -21.9807], [-47.5826, -21.9916], [-47.5746, -22.0143], [-47.6017, -22.052], [-47.6265, -22.0436], [-47.5784, -22.0889], [-47.4589, -22.0832], [-47.442, -22.0636], [-47.3997, -22.0849], [-47.3781, -22.0956], [-47.328, -22.0902], [-47.3009, -22.1029], [-47.2554, -22.0913], [-47.1975, -22.0987], [-47.1483, -22.1092], [-47.1005, -22.0673], [-47.0462, -22.1156], [-47.0172, -22.1146], [-46.937, -22.1464], [-46.8749, -22.1131], [-46.8921, -22.086], [-46.8612, -22.0504], [-46.9025, -22.0065], [-46.9314, -22.0111], [-46.9397, -21.9781], [-46.9822, -21.9677]]]}, "properties": {"codarea": "35029", "nome": "Pirassununga", "valores": {"2023": 38566.0}, "escolas": {"2023": 152}}}, {"type": "Feature", "geometry": {"type": "Polygon", "coordinates": [[[-46.6907, -21.8376], [-46.6307, -21.7686], [-46.6145, -21.6765], [-46.5646, -21.6787], [-46.5547, -21.6534], [-46.5118, -21.5654], [-46.523, -21.5299], [-46.5089, -21.4891], [-46.5191, -21.449], [-46.5765, -21.427], [-46.6161, -21.4303], [-46.6476, -21.3796], [-46.6755, -21.3751], [-46.739, -21.3926], [-46.7647, -21.3601], [-46.7815, -21.3707], [-46.8361, -21.3707], [-46.8421, -21.3891], [-46.8846, -21.4072], [-46.9329, -21.425], [-47.013, -21.4191], [-46.9967, -21.3573], [-47.0165, -21.3424], [-47.0442, -21.2674], [-47.0655, -21.2694], [-47.1296, -21.3285], [-47.1573, -21.3023], [-47.1919, -21.348], [-47.2149, -21.427], [-47.2413, -21.4433], [-47.2642, -21.4513], [-47.2787, -21.4684], [-47.2775, -21.5277], [-47.3055, -21.5508], [-47.357, -21.5699], [-47.3642, -21.5932], [-47.3992, -21.6137], [-47.3724, -21.6498], [-47.3288, -21.6445], [-47.3383, -21.6812], [-47.2934, -21.7523], [-47.2409, -21.7579], [-47.2113, -21.7561], [-47.1866, -21.7904], [-47.1855, -21.8475], [-47.1946, -21.9145], [-47.1599, -21.9474], [-47.1955, -21.9737], [-47.1584, -21.9838], [-47.1071, -21.9757], [-47.0378, -21.9906], [-46.9822, -21.9677], [-46.9397, -21.9781], [-46.9314, -22.0111], [-46.9025, -22.0065], [-46.8612, -22.0504], [-46.8921, -22.086], [-46.8749, -22.1131], [-46.8653, -22.1313], [-46.8999, -22.1757], [-46.8971, -22.2049], [-46.9, -22.2457], [-46.8229, -22.2674], [-46.7913, -22.2973], [-46.7683, -22.2861], [-46.7233, -22.3066], [-46.7069, -22.2579], [-46.6803, -22.2165], [-46.6718, -22.1783], [-46.6456, -22.1806], [-46.613, -22.1503], [-46.6242, -22.1085], [-46.6468, -22.0919], [-46.7001, -22.0951], [-46.7195, -22.0833], [-46.6648, -22.0689], [-46.6854, -22.0374], [-46.6499, -22.0095], [-46.6179, -21.995], [-46.6428, -21.9766], [-46.6738, -21.9111], [-46.6475, -21.8805], [-46.666, -21.8484], [-46.6907, -21.8376]]]}, "properties": {"codarea": "35030", "nome": "São João da Boa Vista", "valores": {"2023": 83340.0}, "escolas": {"2023": 346}}}, {"type": "Feature", "geometry": {"type": "Polygon", "coordinates": [[[-46.6583, -22.4731], [-46.681, -22.474], [-46.7126, -22.5037], [-46.7372, -22.5474], [-46.7977, -22.5414], [-46.8325, -22.579], [-46.8693, -22.5839], [-46.8637, -22.6025], [-46.8987, -22.628], [-46.8978, -22.6569], [-46.9307, -22.6821], [-46.8874, -22.6856], [-46.8353, -22.7764], [-46.8371, -22.8434], [-46.798, -22.8344], [-46.7609, -22.8479], [-46.7081, -22.7795], [-46.6609, -22.7688], [-46.6232, -22.8065], [-46.6245, -22.833], [-46.5827, -22.8508], [-46.5275, -22.8269], [-46.4428, -22.8245], [-46.4042, -22.8072], [-46.3745, -22.8202], [-46.3617, -22.7889], [-46.3326, -22.7661], [-46.3728, -22.7468], [-46.4527, -22.7276], [-46.4731, -22.705], [-46.4691, -22.6732], [-46.3931, -22.663], [-46.4243, -22.5994], [-46.4146, -22.5579], [-46.4565, -22.5217], [-46.5421, -22.4944], [-46.5499, -22.4695], [-46.5548, -22.4466], [-46.6163, -22.4386], [-46.6583, -22.4731]]]}, "properties": {"codarea": "35033", "nome": "Amparo", "valores": {"2023": 39020.0}, "escolas": {"2023": 185}}}, {"type": "Feature", "geometry": {"type": "Polygon", "coordinates": [[[-49.222, -23.0365], [-49.2413, -23.073], [-49.2454, -23.1448], [-49.2431, -23.2073], [-49.2108, -23.2455], [-49.1995, -23.2914], [-49.2173, -23.2985], [-49.2131, -23.4175], [-49.1624, -23.4864], [-49.1607, -23.5429], [-49.1176, -23.5602], [-49.1266, -23.5815], [-49.122, -23.6459], [-49.1363, -23.6616], [-49.14, -23.702], [-49.1327, -23.7215], [-49.0545, -23.6862], [-49.0257, -23.6504], [-48.9783, -23.6234], [-48.9252, -23.6264], [-48.8334, -23.5983], [-48.8002, -23.6393], [-48.781, -23.6428], [-48.7649, -23.6135], [-48.6936, -23.6009], [-48.678, -23.5876], [-48.6219, -23.594], [-48.6095, -23.5818], [-48.637, -23.5263], [-48.6245, -23.4823], [-48.6427, -23.4719], [-48.653, -23.4289], [-48.6331, -23.3979], [-48.6279, -23.3564], [-48.6475, -23.3291], [-48.5927, -23.3154], [-48.5541, -23.2794], [-48.4915, -23.2611], [-48.452, -23.2107], [-48.4284, -23.2031], [-48.4501, -23.1745], [-48.4763, -23.0816], [-48.5663, -23.0365], [-48.6171, -23.0387], [-48.6363, -23.0206], [-48.6451, -22.9665], [-48.7054, -22.9433], [-48.7776, -22.9655], [-48.8522, -22.9317], [-48.8289, -22.8922], [-48.7994, -22.8734], [-48.8026, -22.8453], [-48.8797, -22.852], [-48.9483, -22.8255], [-48.9834, -22.8405], [-49.0309, -22.8338], [-49.0305, -22.7632], [-49.0949, -22.6979], [-49.0953, -22.6669], [-49.1515, -22.6843], [-49.183, -22.7242], [-49.2275, -22.7601], [-49.2489, -22.7494], [-49.2803, -22.7723], [-49.325, -22.7643], [-49.3759, -22.7775], [-49.3696, -22.8834], [-49.3088, -22.8978], [-49.2922, -22.9295], [-49.3037, -22.9527], [-49.2563, -22.9755], [-49.2459, -23.0125], [-49.222, -23.0365]]]}, "properties": {"codarea": "35022", "nome": "Avaré", "valores": {"2023": 45030.0}, "escolas": {"2023": 174}}}, {"type": "Feature", "geometry": {"type": "Polygon", "coordinates": [[[-47.5071, -22.8525], [-47.5302, -22.846], [-47.4951, -22.7674], [-47.4905, -22.7243], [-47.5117, -22.6915], [-47.5487, -22.6137], [-47.5519, -22.5804], [-47.5827, -22.542], [-47.6309, -22.5476], [-47.6544, -22.5209], [-47.6692, -22.5399], [-47.6686, -22.5101], [-47.6937, -22.4825], [-47.7238, -22.4928], [-47.7767, -22.4441], [-47.7929, -22.4482], [-47.8126, -22.4568], [-47.857, -22.4306], [-47.9158, -22.4247], [-48.0408, -22.5059], [-48.0595, -22.5134], [-48.1039, -22.5089], [-48.1728, -22.4761], [-48.1987, -22.5086], [-48.2349, -22.5204], [-48.2601, -22.5404], [-48.2477, -22.5785], [-48.2615, -22.6054], [-48.2464, -22.619], [-48.2138, -22.6152], [-48.1563, -22.6378], [-48.0964, -22.6234], [-48.0885, -22.6519], [-48.0986, -22.6884], [-48.0717, -22.7363], [-48.0315, -22.7192], [-48.032, -22.8257], [-48.0475, -22.8319], [-48.0144, -22.8523], [-47.9878, -22.8879], [-47.9308, -22.8833], [-47.8668, -22.8607], [-47.8688, -22.899], [-47.8448, -22.9016], [-47.8089, -22.8777], [-47.8267, -22.9422], [-47.8058, -22.9826], [-47.7725, -22.9755], [-47.7572, -22.9978], [-47.7919, -23.049], [-47.8213, -23.0724], [-47.8094, -23.0981], [-47.8189, -23.1325], [-47.7897, -23.1523], [-47.751, -23.1221], [-47.714, -23.1407], [-47.6841, -23.1952], [-47.704, -23.216], [-47.6815, -23.2203], [-47.6295, -23.1916], [-47.6124, -23.1515], [-47.6289, -23.125], [-47.6087, -23.0993], [-47.5086, -23.0916], [-47.4888, -23.1075], [-47.4282, -23.1011], [-47.4456, -23.0223], [-47.3888, -22.9836], [-47.3962, -22.9045], [-47.4417, -22.8887], [-47.4651, -22.8582], [-47.5071, -22.8525]]]}, "properties": {"codarea": "35028", "nome": "Piracicaba", "valores": {"2023": 140275.0}, "escolas": {"2023": 446}}}, {"type": "Feature", "geometry": {"type": "Polygon", "coordinates": [[[-48.9342, -22.3408], [-49.0366, -22.2737], [-49.0541, -22.2381], [-49.0343, -22.207], [-48.9922, -22.2169], [-48.917, -22.1471], [-48.908, -22.1246], [-48.8609, -22.0906], [-48.8563, -22.0336], [-48.8672, -22.0241], [-48.8877, -22.0061], [-48.8624, -21.9595], [-48.903, -21.9333], [-48.8922, -21.9067], [-48.9061, -21.8682], [-48.9648, -21.8498], [-48.9898, -21.8274], [-48.9636, -21.7887], [-48.9731, -21.7586], [-49.0401, -21.7739], [-49.084, -21.7556], [-49.1045, -21.751], [-49.1381, -21.7084], [-49.1642, -21.6474], [-49.2133, -21.6711], [-49.2386, -21.6708], [-49.2733, -21.659], [-49.3115, -21.6172], [-49.3316, -21.6515], [-49.3825, -21.6693], [-49.4046, -21.6947], [-49.4143, -21.7568], [-49.4313, -21.7794], [-49.4565, -21.784], [-49.546, -21.8565], [-49.5656, -21.8316], [-49.6107, -21.8705], [-49.6586, -21.8601], [-49.7342, -21.9406], [-49.7553, -22.0089], [-49.7407, -22.0262], [-49.6955, -22.0445], [-49.6336, -22.076], [-49.5694, -22.1394], [-49.5564, -22.1298], [-49.5276, -22.1519], [-49.53, -22.1816], [-49.5122, -22.1887], [-49.4889, -22.2348], [-49.459, -22.2411], [-49.4228, -22.2942], [-49.4592, -22.3375], [-49.5128, -22.3957], [-49.5564, -22.392], [-49.6039, -22.4431], [-49.6285, -22.4692], [-49.6507, -22.44], [-49.6837, -22.4661], [-49.7038, -22.4393], [-49.772, -22.5006], [-49.748, -22.5401], [-49.7365, -22.5884], [-49.7071, -22.6187], [-49.6879, -22.6011], [-49.6312, -22.624], [-49.5989, -22.6649], [-49.5851, -22.6056], [-49.5662, -22.575], [-49.503, -22.5138], [-49.4897, -22.5419], [-49.4519, -22.5764], [-49.4536, -22.584], [-49.4189, -22.6212], [-49.351, -22.6426], [-49.3397, -22.6659], [-49.3798, -22.7339], [-49.3759, -22.7775], [-49.325, -22.7643], [-49.2803, -22.7723], [-49.2489, -22.7494], [-49.2275, -22.7601], [-49.183, -22.7242], [-49.1515, -22.6843], [-49.0953, -22.6669], [-49.0949, -22.6979], [-49.0305, -22.7632], [-49.0309, -22.8338], [-48.9834, -22.8405], [-48.9483, -22.8255], [-48.8797, -22.852], [-48.8026, -22.8453], [-48.7801, -22.8267], [-48.7782, -22.762], [-48.7294, -22.7647], [-48.6983, -22.7351], [-48.6887, -22.6943], [-48.6436, -22.689], [-48.6082, -22.6564], [-48.6249, -22.6123], [-48.65, -22.5888], [-48.6451, -22.5371], [-48.6532, -22.5324], [-48.674, -22.5517], [-48.7635, -22.5586], [-48.8165, -22.5415], [-48.827, -22.4884], [-48.861, -22.4841], [-48.8547, -22.4091], [-48.8808, -22.3844], [-48.9147, -22.3985], [-48.9115, -22.3384], [-48.9342, -22.3408]]]}, "properties": {"codarea": "35020", "nome": "Bauru", "valores": {"2023": 130863.0}, "escolas": {"2023": 464}}}, {"type": "Feature", "geometry": {"type": "Polygon", "coordinates": [[[-47.8072, -23.4887], [-47.87, -23.4455], [-47.9231, -23.4615], [-47.9503, -23.4085], [-47.9999, -23.4307], [-48.0488, -23.4243], [-48.0537, -23.3887], [-48.0833, -23.3728], [-48.0812, -23.3279], [-48.1388, -23.2712], [-48.1552, -23.2618], [-48.1949, -23.2951], [-48.2414, -23.2802], [-48.3004, -23.2579], [-48.3364, -23.268], [-48.3601, -23.303], [-48.4915, -23.2611], [-48.5541, -23.2794], [-48.5927, -23.3154], [-48.6475, -23.3291], [-48.6279, -23.3564], [-48.6331, -23.3979], [-48.653, -23.4289], [-48.6427, -23.4719], [-48.6245, -23.4823], [-48.637, -23.5263], [-48.6095, -23.5818], [-48.5771, -23.5763], [-48.5349, -23.5411], [-48.5064, -23.5486], [-48.4786, -23.6092], [-48.4782, -23.6473], [-48.4078, -23.7146], [-48.3949, -23.7252], [-48.3926, -23.7812], [-48.3491, -23.8311], [-48.2946, -23.8264], [-48.2403, -23.8614], [-48.2075, -23.8495], [-48.1518, -23.8405], [-48.0949, -23.7985], [-48.0521, -23.7559], [-48.0286, -23.7675], [-47.9968, -23.7433], [-47.944, -23.7542], [-47.9232, -23.7931], [-47.8657, -23.7833], [-47.8485, -23.7495], [-47.8566, -23.7209], [-47.8847, -23.6956], [-47.9104, -23.6058], [-47.8097, -23.5868], [-47.7799, -23.5321], [-47.8072, -23.4887]]]}, "properties": {"codarea": "35042", "nome": "Itapetininga", "valores": {"2023": 47011.0}, "escolas": {"2023": 185}}}, {"type": "Feature", "geometry": {"type": "Polygon", "coordinates": [[[-51.224, -21.8288], [-51.2491, -21.7823], [-51.2418, -21.7363], [-51.2836, -21.7217], [-51.343, -21.7746], [-51.3731, -21.741], [-51.3946, -21.7448], [-51.457, -21.7424], [-51.4965, -21.7074], [-51.5119, -21.7018], [-51.5371, -21.6844], [-51.6105, -21.6754], [-51.6539, -21.6427], [-51.6979, -21.6338], [-51.714, -21.596], [-51.7815, -21.6034], [-51.8428, -21.5784], [-51.86, -21.5807], [-51.8805, -21.5814], [-51.9411, -21.547], [-51.9638, -21.5232], [-51.9622, -21.4933], [-52.0004, -21.5166], [-52.0571, -21.5036], [-52.0778, -21.5152], [-52.1022, -21.5698], [-52.0689, -21.5981], [-52.0495, -21.6431], [-52.0558, -21.6772], [-52.1038, -21.7461], [-52.1613, -21.7708], [-52.1894, -21.8443], [-52.2484, -21.9023], [-52.275, -21.9149], [-52.319, -21.9721], [-52.3392, -22.0478], [-52.3919, -22.1147], [-52.4082, -22.1416], [-52.4562, -22.1853], [-52.4877, -22.2172], [-52.5869, -22.2568], [-52.6553, -22.3031], [-52.6951, -22.3146], [-52.7983, -22.3783], [-52.8548, -22.4391], [-52.9482, -22.4734], [-52.9986, -22.4932], [-53.0144, -22.5207], [-53.0738, -22.5489], [-53.1079, -22.5955], [-53.1052, -22.6219], [-53.0915, -22.6448], [-53.0385, -22.6184], [-53.0117, -22.5988], [-52.9724, -22.5705], [-52.9247, -22.5656], [-52.8584, -22.608], [-52.8154, -22.597], [-52.7829, -22.6021], [-52.7643, -22.6086], [-52.6971, -22.627], [-52.5893, -22.5661], [-52.5378, -22.616], [-52.4988, -22.6342], [-52.4457, -22.6083], [-52.4214, -22.6106], [-52.3805, -22.6265], [-52.3004, -22.6354], [-52.29, -22.6282], [-52.2504, -22.6154], [-52.2281, -22.6425], [-52.2226, -22.6755], [-52.1828, -22.6554], [-52.1567, -22.6447], [-52.1523, -22.5692], [-52.1356, -22.5269], [-52.1092, -22.5163], [-52.0329, -22.5392], [-52.0284, -22.5395], [-51.9405, -22.5673], [-51.9015, -22.6019], [-51.8902, -22.6132], [-51.8558, -22.6317], [-51.7716, -22.6141], [-51.733, -22.6286], [-51.7182, -22.669], [-51.6305, -22.6579], [-51.6279, -22.6582], [-51.5596, -22.6972], [-51.5172, -22.69], [-51.475, -22.6792], [-51.4464, -22.653], [-51.402, -22.6679], [-51.3736, -22.6581], [-51.3331, -22.6671], [-51.2982, -22.6735], [-51.2824, -22.6429], [-51.2837, -22.5888], [-51.2707, -22.5449], [-51.2172, -22.5349], [-51.1455, -22.4801], [-51.1, -22.4869], [-51.0633, -22.4737], [-51.0282, -22.4801], [-51.0318, -22.5125], [-50.9865, -22.5185], [-50.973, -22.5443], [-50.9623, -22.6331], [-50.945, -22.675], [-50.9059, -22.6378], [-50.8878, -22.6561], [-50.8276, -22.6453], [-50.8461, -22.618], [-50.842, -22.5504], [-50.8574, -22.5299], [-50.8313, -22.4841], [-50.8437, -22.4469], [-50.8296, -22.4283], [-50.7835, -22.4352], [-50.7643, -22.3875], [-50.77, -22.3498], [-50.7589, -22.3035], [-50.7166, -22.2497], [-50.7288, -22.2358], [-50.7255, -22.1669], [-50.7096, -22.1393], [-50.7252, -22.0913], [-50.7058, -22.022], [-50.7051, -22.0216], [-50.7102, -22.0152], [-50.7804, -22.0025], [-50.8647, -21.969], [-50.9379, -21.951], [-50.9659, -21.9258], [-51.0042, -21.9205], [-51.0529, -21.8891], [-51.0827, -21.8818], [-51.1113, -21.8888], [-51.1402, -21.8569], [-51.1548, -21.8634], [-51.1825, -21.8333], [-51.224, -21.8288]]]}, "properties": {"codarea": "35036", "nome": "Presidente Prudente", "valores": {"2023": 120600.0}, "escolas": {"2023": 496}}}, {"type": "Feature", "geometry": {"type": "Polygon", "coordinates": [[[-47.5019, -21.2079], [-47.5035, -21.2402], [-47.4753, -21.2988], [-47.4588, -21.367], [-47.4151, -21.3432], [-47.3797, -21.3953], [-47.3329, -21.4148], [-47.2981, -21.4483], [-47.2642, -21.4513], [-47.2413, -21.4433], [-47.2149, -21.427], [-47.1919, -21.348], [-47.1573, -21.3023], [-47.1296, -21.3285], [-47.0655, -21.2694], [-47.0442, -21.2674], [-47.0761, -21.2412], [-47.1185, -21.1859], [-47.1176, -21.1532], [-47.133, -21.1332], [-47.1148, -21.1047], [-47.1413, -21.0859], [-47.1479, -21.0355], [-47.1437, -20.9824], [-47.1813, -20.9538], [-47.24, -20.8853], [-47.2274, -20.8565], [-47.2461, -20.8646], [-47.2894, -20.8367], [-47.3274, -20.8589], [-47.3435, -20.8301], [-47.4121, -20.8091], [-47.4527, -20.7599], [-47.4949, -20.748], [-47.5091, -20.7249], [-47.5673, -20.7393], [-47.5982, -20.6931], [-47.6125, -20.7003], [-47.6508, -20.7211], [-47.6497, -20.7707], [-47.6629, -20.8203], [-47.7182, -20.8153], [-47.773, -20.8558], [-47.7797, -20.8944], [-47.7662, -20.9309], [-47.7185, -20.9384], [-47.6745, -20.9364], [-47.6069, -20.9851], [-47.567, -21.0252], [-47.5406, -21.0346], [-47.5181, -21.0979], [-47.559, -21.1076], [-47.6282, -21.1483], [-47.6111, -21.1817], [-47.5825, -21.1727], [-47.5278, -21.2005], [-47.5019, -21.2079]]]}, "properties": {"codarea": "35015", "nome": "Batatais", "valores": {"2023": 23074.0}, "escolas": {"2023": 101}}}, {"type": "Feature", "geometry": {"type": "Polygon", "coordinates": [[[-50.0609, -21.5839], [-49.9939, -21.5909], [-49.9158, -21.5575], [-49.9086, -21.5045], [-49.8722, -21.4689], [-49.8611, -21.4305], [-49.8686, -21.3926], [-49.8432, -21.3553], [-49.8181, -21.3031], [-49.8316, -21.275], [-49.8565, -21.2603], [-49.9146, -21.2382], [-49.9916, -21.2267], [-50.027, -21.2108], [-50.091, -21.2203], [-50.1289, -21.1955], [-50.1513, -21.1399], [-50.1097, -21.1034], [-50.1095, -21.0731], [-50.055, -20.9973], [-50.0329, -20.9784], [-50.0224, -20.9436], [-50.0507, -20.9315], [-50.0924, -20.8871], [-50.1639, -20.8749], [-50.181, -20.9006], [-50.2628, -20.9058], [-50.2829, -20.9368], [-50.2992, -20.9995], [-50.3582, -21.0435], [-50.347, -21.0603], [-50.3563, -21.1264], [-50.3804, -21.154], [-50.4036, -21.2326], [-50.3904, -21.2517], [-50.4666, -21.2971], [-50.4657, -21.3077], [-50.4841, -21.351], [-50.5232, -21.3896], [-50.5538, -21.4499], [-50.5817, -21.4418], [-50.6223, -21.4517], [-50.6528, -21.493], [-50.6997, -21.5273], [-50.7494, -21.5238], [-50.7735, -21.5446], [-50.7798, -21.5678], [-50.7343, -21.572], [-50.6696, -21.6058], [-50.6474, -21.6499], [-50.6152, -21.6589], [-50.6096, -21.6569], [-50.5706, -21.6919], [-50.5171, -21.7099], [-50.496, -21.7153], [-50.4541, -21.6882], [-50.3997, -21.7166], [-50.3606, -21.7242], [-50.3085, -21.7145], [-50.2733, -21.7093], [-50.2459, -21.6967], [-50.1592, -21.6824], [-50.1077, -21.6839], [-50.0999, -21.6206], [-50.0609, -21.5839]]]}, "properties": {"codarea": "35018", "nome": "Birigui", "valores": {"2023": 57749.0}, "escolas": {"2023": 213}}}, {"type": "Feature", "geometry": {"type": "Polygon", "coordinates": [[[-47.2773, -23.5972], [-47.2502, -23.6203], [-47.2053, -23.6167], [-47.179, -23.6411], [-47.1387, -23.6394], [-47.0815, -23.6532], [-47.059, -23.6283], [-47.0281, -23.5813], [-46.9916, -23.5294], [-46.995, -23.507], [-47.0375, -23.4356], [-47.0306, -23.3717], [-47.0429, -23.3523], [-46.9591, -23.3268], [-46.9723, -23.3012], [-46.9698, -23.2604], [-47.0142, -23.2636], [-47.0284, -23.2367], [-47.0509, -23.2406], [-47.1128, -23.226], [-47.116, -23.2251], [-47.1293, -23.204], [-47.1959, -23.187], [-47.2455, -23.1827], [-47.3007, -23.1128], [-47.3896, -23.1547], [-47.4185, -23.1687], [-47.4119, -23.1195], [-47.4282, -23.1011], [-47.4888, -23.1075], [-47.5086, -23.0916], [-47.6087, -23.0993], [-47.6289, -23.125], [-47.6124, -23.1515], [-47.6295, -23.1916], [-47.6162, -23.2079], [-47.6089, -23.2985], [-47.5752, -23.3425], [-47.578, -23.3637], [-47.6096, -23.3571], [-47.6758, -23.3678], [-47.6827, -23.3349], [-47.737, -23.3315], [-47.7256, -23.3855], [-47.7584, -23.3994], [-47.8072, -23.4887], [-47.7799, -23.5321], [-47.8097, -23.5868], [-47.9104, -23.6058], [-47.8847, -23.6956], [-47.8566, -23.7209], [-47.8485, -23.7495], [-47.7899, -23.7553], [-47.7098, -23.7139], [-47.6654, -23.7429], [-47.6345, -23.7074], [-47.6187, -23.7567], [-47.5779, -23.757], [-47.5526, -23.7227], [-47.4883, -23.6849], [-47.4942, -23.65], [-47.4542, -23.6255], [-47.4045, -23.6212], [-47.3684, -23.6338], [-47.3371, -23.6116], [-47.2968, -23.6037], [-47.2773, -23.5972]]]}, "properties": {"codarea": "35046", "nome": "Sorocaba", "valores": {"2023": 356285.0}, "escolas": {"2023": 1063}}}, {"type": "Feature", "geometry": {"type": "Polygon", "coordinates": [[[-49.6873, -20.2013], [-49.6544, -20.1705], [-49.6245, -20.1765], [-49.5991, -20.1164], [-49.5927, -20.0787], [-49.5508, -20.0677], [-49.5502, -20.0231], [-49.6132, -19.92], [-49.6344, -19.9319], [-49.7494, -19.9247], [-49.8353, -19.9333], [-49.8537, -19.9465], [-49.9062, -19.9372], [-49.9699, -19.92], [-50.0031, -19.9264], [-50.0441, -19.9164], [-50.0558, -19.9813], [-50.1111, -20.0378], [-50.0741, -20.0716], [-50.0354, -20.0844], [-50.0227, -20.1359], [-50.0277, -20.1817], [-50.0322, -20.2028], [-50.0715, -20.246], [-50.0778, -20.3045], [-50.0814, -20.3104], [-50.0922, -20.3747], [-50.1392, -20.387], [-50.1357, -20.4235], [-50.2029, -20.4814], [-50.1544, -20.5049], [-50.1383, -20.5211], [-50.1202, -20.5217], [-50.071, -20.5415], [-50.0171, -20.5389], [-49.9828, -20.5723], [-49.9231, -20.562], [-49.8707, -20.5907], [-49.8391, -20.5741], [-49.7903, -20.5283], [-49.7514, -20.528], [-49.7052, -20.4868], [-49.6811, -20.4288], [-49.6806, -20.3935], [-49.6631, -20.3623], [-49.6173, -20.3227], [-49.6483, -20.26], [-49.6868, -20.2235], [-49.6873, -20.2013]]]}, "properties": {"codarea": "35003", "nome": "Votuporanga", "valores": {"2023": 31309.0}, "escolas": {"2023": 108}}}, {"type": "Feature", "geometry": {"type": "Polygon", "coordinates": [[[-49.7683, -22.0467], [-49.8143, -22.0032], [-49.8821, -21.97], [-49.9667, -21.9402], [-50.0111, -21.9252], [-50.0603, -21.8745], [-50.1281, -21.817], [-50.1591, -21.8581], [-50.223, -21.8613], [-50.2498, -21.8834], [-50.2705, -21.8417], [-50.2847, -21.9595], [-50.2484, -21.991], [-50.2903, -22.0395], [-50.2591, -22.0559], [-50.2876, -22.0841], [-50.2774, -22.1184], [-50.2943, -22.1504], [-50.3459, -22.1885], [-50.2993, -22.2087], [-50.3253, -22.2714], [-50.3325, -22.3391], [-50.3242, -22.3593], [-50.2368, -22.3793], [-50.3358, -22.4547], [-50.35, -22.479], [-50.3285, -22.5263], [-50.3013, -22.5457], [-50.2644, -22.5627], [-50.2244, -22.5269], [-50.1861, -22.544], [-50.1692, -22.5926], [-50.1388, -22.5739], [-50.1192, -22.5593], [-50.0879, -22.4905], [-50.0692, -22.493], [-50.0607, -22.4989], [-50.0268, -22.5113], [-49.9995, -22.4976], [-49.9818, -22.5303], [-49.9263, -22.5408], [-49.8879, -22.5255], [-49.8854, -22.5058], [-49.8176, -22.5261], [-49.772, -22.5006], [-49.7038, -22.4393], [-49.6837, -22.4661], [-49.6507, -22.44], [-49.6285, -22.4692], [-49.6039, -22.4431], [-49.5564, -22.392], [-49.5128, -22.3957], [-49.4592, -22.3375], [-49.4228, -22.2942], [-49.459, -22.2411], [-49.4889, -22.2348], [-49.5122, -22.1887], [-49.53, -22.1816], [-49.5276, -22.1519], [-49.5564, -22.1298], [-49.5694, -22.1394], [-49.6336, -22.076], [-49.6955, -22.0445], [-49.7407, -22.0262], [-49.7683, -22.0467]]]}, "properties": {"codarea": "35038", "nome": "Marília", "valores": {"2023": 74903.0}, "escolas": {"2023": 247}}}, {"type": "Feature", "geometry": {"type": "Polygon", "coordinates": [[[-47.3881, -22.6993], [-47.44, -22.715], [-47.4743, -22.7383], [-47.4905, -22.7243], [-47.4951, -22.7674], [-47.5302, -22.846], [-47.5071, -22.8525], [-47.4651, -22.8582], [-47.4417, -22.8887], [-47.3962, -22.9045], [-47.3888, -22.9836], [-47.4456, -23.0223], [-47.4282, -23.1011], [-47.4119, -23.1195], [-47.4185, -23.1687], [-47.3896, -23.1547], [-47.3007, -23.1128], [-47.2455, -23.1827], [-47.1959, -23.187], [-47.1293, -23.204], [-47.116, -23.2251], [-47.1128, -23.226], [-47.1136, -23.1793], [-47.1438, -23.1009], [-47.0868, -23.0909], [-47.0883, -23.0555], [-47.0486, -23.0514], [-47.0377, -23.057], [-46.9954, -23.1155], [-46.9769, -23.0659], [-46.9425, -23.0666], [-46.916, -23.0457], [-46.9105, -23.0175], [-46.9262, -22.9745], [-46.8785, -22.9275], [-46.8785, -22.9271], [-46.8507, -22.8766], [-46.8584, -22.8362], [-46.8371, -22.8434], [-46.8353, -22.7764], [-46.8874, -22.6856], [-46.9307, -22.6821], [-46.9312, -22.6829], [-46.9393, -22.6577], [-46.9784, -22.6544], [-47.0147, -22.6086], [-47.0314, -22.619], [-47.0483, -22.5703], [-47.0548, -22.5707], [-47.0875, -22.5877], [-47.0974, -22.6353], [-47.1281, -22.6133], [-47.2114, -22.6021], [-47.227, -22.57], [-47.2273, -22.6028], [-47.2791, -22.6635], [-47.3353, -22.7129], [-47.3601, -22.6883], [-47.3881, -22.6993]]]}, "properties": {"codarea": "35032", "nome": "Campinas", "valores": {"2023": 657827.0}, "escolas": {"2023": 1929}}}, {"type": "Feature", "geometry": {"type": "Polygon", "coordinates": [[[-47.9098, -21.6782], [-47.873, -21.6391], [-47.8631, -21.6116], [-47.9272, -21.576], [-47.9642, -21.5983], [-48.0273, -21.5389], [-48.0312, -21.5149], [-48.0743, -21.4792], [-48.1089, -21.4293], [-48.1135, -21.4206], [-48.2347, -21.4738], [-48.2826, -21.4813], [-48.324, -21.4844], [-48.3693, -21.5045], [-48.3941, -21.4922], [-48.4639, -21.4898], [-48.4711, -21.5127], [-48.5619, -21.5319], [-48.5956, -21.5142], [-48.6292, -21.5587], [-48.6548, -21.5441], [-48.6625, -21.491], [-48.7056, -21.4904], [-48.7257, -21.42], [-48.7543, -21.4207], [-48.7735, -21.4276], [-48.8484, -21.3913], [-48.873, -21.3943], [-48.9002, -21.3706], [-48.9792, -21.4161], [-48.9914, -21.4562], [-49.0194, -21.4823], [-49.0548, -21.4885], [-49.0822, -21.4645], [-49.1502, -21.5302], [-49.1559, -21.5559], [-49.1875, -21.5959], [-49.2412, -21.6242], [-49.2133, -21.6711], [-49.1642, -21.6474], [-49.1381, -21.7084], [-49.1045, -21.751], [-49.084, -21.7556], [-49.0401, -21.7739], [-48.9731, -21.7586], [-48.9636, -21.7887], [-48.9898, -21.8274], [-48.9648, -21.8498], [-48.9061, -21.8682], [-48.8922, -21.9067], [-48.8776, -21.921], [-48.8326, -21.8949], [-48.7267, -21.891], [-48.6789, -21.9278], [-48.6794, -21.9288], [-48.6424, -21.9701], [-48.6069, -21.9877], [-48.5644, -22.0048], [-48.5443, -22.0345], [-48.5033, -22.0194], [-48.4449, -22.0632], [-48.4413, -22.0611], [-48.3945, -22.0434], [-48.3482, -22.047], [-48.3227, -22.0781], [-48.2986, -22.0637], [-48.307, -22.031], [-48.2915, -21.9897], [-48.2887, -21.9547], [-48.2544, -21.8931], [-48.2297, -21.9251], [-48.2021, -21.9326], [-48.1881, -21.966], [-48.166, -21.9718], [-48.1035, -21.9518], [-48.0698, -21.9529], [-48.0397, -21.8728], [-48.0125, -21.8873], [-47.9786, -21.8698], [-47.9912, -21.8482], [-47.9689, -21.82], [-47.9472, -21.7832], [-47.9677, -21.7416], [-47.9228, -21.7203], [-47.9098, -21.6782]]]}, "properties": {"codarea": "35024", "nome": "Araraquara", "valores": {"2023": 112030.0}, "escolas": {"2023": 397}}}, {"type": "Feature", "geometry": {"type": "Polygon", "coordinates": [[[-47.7132, -22.2401], [-47.7071, -22.2107], [-47.6745, -22.1935], [-47.5993, -22.1791], [-47.5904, -22.1525], [-47.5503, -22.1508], [-47.5784, -22.0889], [-47.6265, -22.0436], [-47.6017, -22.052], [-47.5746, -22.0143], [-47.5826, -21.9916], [-47.545, -21.9807], [-47.5119, -21.9359], [-47.5106, -21.8793], [-47.5517, -21.8546], [-47.5547, -21.8363], [-47.5242, -21.8023], [-47.5699, -21.7843], [-47.5879, -21.7345], [-47.6202, -21.7454], [-47.6641, -21.7424], [-47.682, -21.7158], [-47.7241, -21.7062], [-47.7368, -21.7119], [-47.7677, -21.6917], [-47.8119, -21.6991], [-47.8301, -21.6685], [-47.8112, -21.6477], [-47.818, -21.6156], [-47.8631, -21.6116], [-47.873, -21.6391], [-47.9098, -21.6782], [-47.9228, -21.7203], [-47.9677, -21.7416], [-47.9472, -21.7832], [-47.9689, -21.82], [-47.9912, -21.8482], [-47.9786, -21.8698], [-48.0125, -21.8873], [-48.0397, -21.8728], [-48.0698, -21.9529], [-48.1035, -21.9518], [-48.166, -21.9718], [-48.1881, -21.966], [-48.2021, -21.9326], [-48.2297, -21.9251], [-48.2544, -21.8931], [-48.2887, -21.9547], [-48.2915, -21.9897], [-48.307, -22.031], [-48.2986, -22.0637], [-48.3227, -22.0781], [-48.3482, -22.047], [-48.3945, -22.0434], [-48.4413, -22.0611], [-48.4449, -22.0632], [-48.3962, -22.1218], [-48.3879, -22.1591], [-48.3423, -22.181], [-48.3143, -22.1987], [-48.2564, -22.1774], [-48.256, -22.1546], [-48.198, -22.148], [-48.1347, -22.1832], [-48.1076, -22.1802], [-48.0437, -22.1289], [-48.0449, -22.0732], [-47.9931, -22.116], [-47.9479, -22.1111], [-47.8999, -22.1576], [-47.8092, -22.1484], [-47.7998, -22.1282], [-47.7603, -22.1634], [-47.7132, -22.2401]]]}, "properties": {"codarea": "35025", "nome": "São Carlos", "valores": {"2023": 71424.0}, "escolas": {"2023": 253}}}, {"type": "Feature", "geometry": {"type": "Polygon", "coordinates": [[[-51.64, -21.1632], [-51.6396, -21.1628], [-51.6137, -21.1417], [-51.5738, -21.1873], [-51.5234, -21.1996], [-51.5018, -21.2211], [-51.4855, -21.2325], [-51.434, -21.2464], [-51.3853, -21.2844], [-51.3288, -21.2925], [-51.2863, -21.3193], [-51.2378, -21.3268], [-51.2254, -21.342], [-51.1833, -21.3087], [-51.1739, -21.2655], [-51.0967, -21.1505], [-51.054, -21.1434], [-51.0427, -21.0951], [-51.0527, -21.0693], [-51.0093, -21.0189], [-50.9518, -20.9775], [-50.8996, -20.9098], [-50.8639, -20.8448], [-50.8666, -20.8305], [-50.8729, -20.8268], [-50.8514, -20.8026], [-50.8141, -20.7338], [-50.7998, -20.6714], [-50.8018, -20.6024], [-50.7645, -20.6214], [-50.7687, -20.5447], [-50.8121, -20.5312], [-50.8731, -20.5424], [-50.9663, -20.5492], [-50.9819, -20.4969], [-50.9908, -20.4317], [-51.0386, -20.3709], [-51.0789, -20.3282], [-51.1094, -20.2801], [-51.1608, -20.3052], [-51.2957, -20.3285], [-51.3435, -20.3556], [-51.4188, -20.465], [-51.4492, -20.4828], [-51.5002, -20.5682], [-51.5676, -20.6183], [-51.5752, -20.6234], [-51.6033, -20.6617], [-51.6349, -20.7548], [-51.6224, -20.7769], [-51.633, -20.8216], [-51.6151, -20.8861], [-51.6236, -20.9444], [-51.6667, -20.9708], [-51.7137, -20.9715], [-51.7596, -21.0222], [-51.7725, -21.0511], [-51.698, -21.0917], [-51.682, -21.1491], [-51.64, -21.1632]]]}, "properties": {"codarea": "35016", "nome": "Andradina", "valores": {"2023": 36541.0}, "escolas": {"2023": 161}}}, {"type": "Feature", "geometry": {"type": "Polygon", "coordinates": [[[-48.2464, -22.619], [-48.2615, -22.6054], [-48.2782, -22.5957], [-48.3341, -22.6254], [-48.3654, -22.6089], [-48.3845, -22.58], [-48.4519, -22.5394], [-48.4903, -22.5461], [-48.5608, -22.5872], [-48.6166, -22.5744], [-48.6451, -22.5371], [-48.65, -22.5888], [-48.6249, -22.6123], [-48.6082, -22.6564], [-48.6436, -22.689], [-48.6887, -22.6943], [-48.6983, -22.7351], [-48.7294, -22.7647], [-48.7782, -22.762], [-48.7801, -22.8267], [-48.8026, -22.8453], [-48.7994, -22.8734], [-48.8289, -22.8922], [-48.8522, -22.9317], [-48.7776, -22.9655], [-48.7054, -22.9433], [-48.6451, -22.9665], [-48.6363, -23.0206], [-48.6171, -23.0387], [-48.5663, -23.0365], [-48.4763, -23.0816], [-48.4501, -23.1745], [-48.4284, -23.2031], [-48.452, -23.2107], [-48.4915, -23.2611], [-48.3601, -23.303], [-48.3364, -23.268], [-48.3004, -23.2579], [-48.2414, -23.2802], [-48.2608, -23.2299], [-48.2249, -23.1962], [-48.1901, -23.1752], [-48.1921, -23.1241], [-48.1595, -23.0867], [-48.0917, -23.0865], [-48.057, -23.1038], [-48.0338, -23.0689], [-48.0061, -23.0697], [-47.9676, -23.0302], [-47.9369, -23.0146], [-47.9338, -22.9451], [-47.9515, -22.9245], [-47.9308, -22.8833], [-47.9878, -22.8879], [-48.0144, -22.8523], [-48.0475, -22.8319], [-48.032, -22.8257], [-48.0315, -22.7192], [-48.0717, -22.7363], [-48.0986, -22.6884], [-48.0885, -22.6519], [-48.0964, -22.6234], [-48.1563, -22.6378], [-48.2138, -22.6152], [-48.2464, -22.619]]]}, "properties": {"codarea": "35023", "nome": "Botucatu", "valores": {"2023": 52234.0}, "escolas": {"2023": 204}}}, {"type": "Feature", "geometry": {"type": "Polygon", "coordinates": [[[-45.2344, -23.0011], [-45.1969, -22.9984], [-45.156, -23.0154], [-45.1108, -23.0076], [-45.082, -22.9645], [-45.0293, -22.9207], [-44.9469, -22.9133], [-44.9104, -22.8856], [-44.8951, -22.8445], [-44.9209, -22.7513], [-44.9128, -22.7397], [-44.9277, -22.6549], [-44.9025, -22.639], [-44.9055, -22.6119], [-44.8745, -22.6217], [-44.8496, -22.6022], [-44.8167, -22.6137], [-44.7901, -22.5867], [-44.7325, -22.5752], [-44.7156, -22.5391], [-44.6882, -22.5215], [-44.7192, -22.4634], [-44.7553, -22.4153], [-44.8094, -22.4056], [-44.8439, -22.4278], [-44.8897, -22.4321], [-44.9396, -22.4526], [-44.9659, -22.4752], [-44.9907, -22.4665], [-45.0549, -22.4705], [-45.1028, -22.4899], [-45.1244, -22.4972], [-45.1668, -22.5307], [-45.1772, -22.5467], [-45.2545, -22.5816], [-45.2691, -22.6114], [-45.333, -22.6176], [-45.4, -22.6537], [-45.4391, -22.7034], [-45.3969, -22.7494], [-45.3978, -22.7825], [-45.346, -22.7886], [-45.3239, -22.8556], [-45.3511, -22.8691], [-45.3326, -22.9102], [-45.3373, -22.9515], [-45.3216, -22.976], [-45.3292, -23.0131], [-45.3072, -23.0252], [-45.2942, -23.0271], [-45.2577, -23.008], [-45.2344, -23.0011]]]}, "properties": {"codarea": "35051", "nome": "Guaratinguetá", "valores": {"2023": 86551.0}, "escolas": {"2023": 350}}}, {"type": "Feature", "geometry": {"type": "Polygon", "coordinates": [[[-50.8731, -20.5424], [-50.8121, -20.5312], [-50.7687, -20.5447], [-50.725, -20.5269], [-50.6793, -20.5301], [-50.6555, -20.5169], [-50.6249, -20.5081], [-50.5541, -20.5283], [-50.528, -20.5089], [-50.4485, -20.4862], [-50.4458, -20.483], [-50.4302, -20.4123], [-50.4687, -20.3905], [-50.468, -20.3153], [-50.4583, -20.2738], [-50.4658, -20.2369], [-50.4664, -20.1956], [-50.4507, -20.1589], [-50.481, -20.1535], [-50.5191, -20.0674], [-50.5192, -20.0359], [-50.518, -20.0293], [-50.4659, -20.0222], [-50.4333, -19.9837], [-50.4411, -19.9323], [-50.4735, -19.8688], [-50.4799, -19.8268], [-50.4541, -19.7862], [-50.4693, -19.7799], [-50.562, -19.8136], [-50.5779, -19.8164], [-50.6142, -19.861], [-50.6581, -19.9071], [-50.6864, -19.9162], [-50.7836, -19.9372], [-50.8441, -19.9676], [-50.886, -19.9904], [-50.9081, -19.9943], [-50.9455, -20.0297], [-50.9691, -20.0364], [-51.0005, -20.0854], [-51.0012, -20.0963], [-51.0216, -20.1333], [-51.0692, -20.25], [-51.1094, -20.2801], [-51.0789, -20.3282], [-51.0386, -20.3709], [-50.9908, -20.4317], [-50.9819, -20.4969], [-50.9663, -20.5492], [-50.8731, -20.5424]]]}, "properties": {"codarea": "35001", "nome": "Jales", "valores": {"2023": 30795.0}, "escolas": {"2023": 126}}}, {"type": "Feature", "geometry": {"type": "Polygon", "coordinates": [[[-49.1199, -24.3301], [-49.1872, -24.3764], [-49.2535, -24.405], [-49.2524, -24.4339], [-49.2505, -24.4454], [-49.2453, -24.4651], [-49.2957, -24.5003], [-49.2799, -24.5359], [-49.316, -24.5555], [-49.3036, -24.5969], [-49.312, -24.6635], [-49.2781, -24.693], [-49.2079, -24.7009], [-49.1857, -24.6728], [-49.1579, -24.6719], [-49.1298, -24.6819], [-49.1116, -24.6884], [-49.0103, -24.6544], [-48.9622, -24.6742], [-48.9123, -24.674], [-48.8404, -24.665], [-48.8108, -24.675], [-48.7771, -24.6957], [-48.7038, -24.6804], [-48.675, -24.7018], [-48.6166, -24.6687], [-48.5722, -24.6906], [-48.5381, -24.7262], [-48.5291, -24.6878], [-48.4646, -24.66], [-48.4475, -24.5993], [-48.4023, -24.5713], [-48.4286, -24.532], [-48.3981, -24.524], [-48.3926, -24.4901], [-48.3515, -24.4592], [-48.3684, -24.3903], [-48.3539, -24.3267], [-48.3831, -24.3042], [-48.361, -24.2828], [-48.3169, -24.313], [-48.281, -24.2819], [-48.2414, -24.2631], [-48.2049, -24.2633], [-48.1443, -24.2222], [-48.1395, -24.1944], [-48.1063, -24.2015], [-48.0581, -24.1772], [-48.0494, -24.1376], [-48.0088, -24.1354], [-47.9812, -24.1135], [-47.9531, -24.1198], [-47.9804, -24.0755], [-47.9977, -24.0739], [-48.0396, -24.0306], [-48.0851, -24.0077], [-48.1251, -24.0143], [-48.1212, -23.9678], [-48.1669, -23.9222], [-48.1884, -23.8567], [-48.2075, -23.8495], [-48.2403, -23.8614], [-48.2946, -23.8264], [-48.3491, -23.8311], [-48.4314, -23.8925], [-48.4752, -23.8904], [-48.5517, -23.9347], [-48.5819, -23.9829], [-48.5499, -24.0037], [-48.5688, -24.0273], [-48.5694, -24.0906], [-48.5966, -24.0902], [-48.6462, -24.1172], [-48.6608, -24.1433], [-48.7298, -24.1157], [-48.7618, -24.1323], [-48.8218, -24.1281], [-48.8267, -24.174], [-48.8654, -24.1606], [-48.8861, -24.2037], [-48.9426, -24.2564], [-48.987, -24.3123], [-49.063, -24.2432], [-49.1079, -24.2507], [-49.0752, -24.2843], [-49.0933, -24.3185], [-49.1199, -24.3301]]]}, "properties": {"codarea": "35044", "nome": "Capão Bonito", "valores": {"2023": 30030.0}, "escolas": {"2023": 193}}}, {"type": "Feature", "geometry": {"type": "Polygon", "coordinates": [[[-50.4657, -21.3077], [-50.4666, -21.2971], [-50.3904, -21.2517], [-50.4036, -21.2326], [-50.3804, -21.154], [-50.3563, -21.1264], [-50.347, -21.0603], [-50.3582, -21.0435], [-50.2992, -20.9995], [-50.2829, -20.9368], [-50.2628, -20.9058], [-50.2767, -20.8836], [-50.3232, -20.8728], [-50.3363, -20.8461], [-50.373, -20.854], [-50.3838, -20.8094], [-50.4322, -20.7975], [-50.5056, -20.7616], [-50.6024, -20.7729], [-50.6827, -20.7329], [-50.6855, -20.7078], [-50.7229, -20.7068], [-50.751, -20.6814], [-50.7998, -20.6714], [-50.8141, -20.7338], [-50.8514, -20.8026], [-50.8729, -20.8268], [-50.8666, -20.8305], [-50.8639, -20.8448], [-50.8996, -20.9098], [-50.9518, -20.9775], [-51.0093, -21.0189], [-51.0527, -21.0693], [-51.0427, -21.0951], [-51.054, -21.1434], [-51.0967, -21.1505], [-51.1739, -21.2655], [-51.1833, -21.3087], [-51.2254, -21.342], [-51.2141, -21.3548], [-51.1641, -21.384], [-51.145, -21.3744], [-51.0999, -21.3699], [-51.0588, -21.3986], [-50.993, -21.4371], [-50.9849, -21.4328], [-50.9241, -21.4419], [-50.8978, -21.4907], [-50.8736, -21.4892], [-50.8681, -21.5263], [-50.8159, -21.5399], [-50.8092, -21.5601], [-50.7735, -21.5446], [-50.7494, -21.5238], [-50.6997, -21.5273], [-50.6528, -21.493], [-50.6223, -21.4517], [-50.5817, -21.4418], [-50.5538, -21.4499], [-50.5232, -21.3896], [-50.4841, -21.351], [-50.4657, -21.3077]]]}, "properties": {"codarea": "35017", "nome": "Araçatuba", "valores": {"2023": 59414.0}, "escolas": {"2023": 221}}}, {"type": "Feature", "geometry": {"type": "Polygon", "coordinates": [[[-47.8895, -20.1558], [-47.9288, -20.2142], [-47.924, -20.2429], [-47.9834, -20.2803], [-48.04, -20.3533], [-48.0386, -20.3626], [-47.9524, -20.381], [-47.9144, -20.4165], [-47.9166, -20.434], [-47.881, -20.4353], [-47.8366, -20.5353], [-47.8091, -20.5428], [-47.7883, -20.581], [-47.743, -20.5955], [-47.7119, -20.5589], [-47.6448, -20.5153], [-47.6266, -20.4804], [-47.6152, -20.4817], [-47.6341, -20.4421], [-47.6262, -20.4072], [-47.6185, -20.363], [-47.6454, -20.2883], [-47.6106, -20.2773], [-47.6026, -20.2526], [-47.6192, -20.2189], [-47.5931, -20.1802], [-47.6091, -20.1596], [-47.5417, -20.1341], [-47.5196, -20.1071], [-47.509, -20.0599], [-47.5422, -20.0131], [-47.5492, -19.9938], [-47.5838, -19.9967], [-47.5947, -20.0259], [-47.6397, -20.0472], [-47.6761, -20.0019], [-47.7127, -19.9781], [-47.7626, -19.986], [-47.8509, -19.9898], [-47.8752, -20.0186], [-47.8615, -20.045], [-47.8698, -20.0762], [-47.8994, -20.1257], [-47.8895, -20.1558]]]}, "properties": {"codarea": "35011", "nome": "Ituverava", "valores": {"2023": 19021.0}, "escolas": {"2023": 77}}}, {"type": "Feature", "geometry": {"type": "Polygon", "coordinates": [[[-44.4662, -22.6157], [-44.5107, -22.6401], [-44.546, -22.607], [-44.6459, -22.6039], [-44.6444, -22.5556], [-44.6679, -22.5541], [-44.6882, -22.5215], [-44.7156, -22.5391], [-44.7325, -22.5752], [-44.7901, -22.5867], [-44.8167, -22.6137], [-44.8496, -22.6022], [-44.8745, -22.6217], [-44.9055, -22.6119], [-44.9025, -22.639], [-44.9277, -22.6549], [-44.9128, -22.7397], [-44.9209, -22.7513], [-44.8951, -22.8445], [-44.9104, -22.8856], [-44.8062, -22.8567], [-44.754, -22.7886], [-44.7047, -22.8034], [-44.7238, -22.8333], [-44.6951, -22.8903], [-44.6295, -22.9049], [-44.6071, -22.8853], [-44.5552, -22.8881], [-44.4946, -22.8468], [-44.4669, -22.885], [-44.4231, -22.8505], [-44.3812, -22.8584], [-44.3181, -22.8451], [-44.2676, -22.829], [-44.2402, -22.7914], [-44.2576, -22.767], [-44.227, -22.7337], [-44.1739, -22.7021], [-44.1656, -22.6734], [-44.1843, -22.6373], [-44.2456, -22.6064], [-44.3421, -22.5893], [-44.3609, -22.6118], [-44.3824, -22.5735], [-44.4058, -22.5991], [-44.4662, -22.6157]]]}, "properties": {"codarea": "35052", "nome": "Bananal", "valores": {"2023": 5227.0}, "escolas": {"2023": 30}}}, {"type": "Feature", "geometry": {"type": "Polygon", "coordinates": [[[-47.4673, -22.4133], [-47.5294, -22.4294], [-47.5778, -22.4705], [-47.5787, -22.5141], [-47.5627, -22.5266], [-47.5827, -22.542], [-47.5519, -22.5804], [-47.5487, -22.6137], [-47.5117, -22.6915], [-47.4905, -22.7243], [-47.4743, -22.7383], [-47.44, -22.715], [-47.3881, -22.6993], [-47.3601, -22.6883], [-47.3353, -22.7129], [-47.2791, -22.6635], [-47.2273, -22.6028], [-47.227, -22.57], [-47.2118, -22.538], [-47.2366, -22.5206], [-47.2529, -22.4769], [-47.2115, -22.4312], [-47.1889, -22.4327], [-47.1535, -22.4817], [-47.136, -22.4699], [-47.0895, -22.3859], [-47.0769, -22.3286], [-47.0838, -22.2998], [-47.1843, -22.292], [-47.2303, -22.2568], [-47.2242, -22.2063], [-47.1912, -22.1736], [-47.1975, -22.0987], [-47.2554, -22.0913], [-47.3009, -22.1029], [-47.328, -22.0902], [-47.3781, -22.0956], [-47.3997, -22.0849], [-47.442, -22.0636], [-47.4589, -22.0832], [-47.5784, -22.0889], [-47.5503, -22.1508], [-47.5431, -22.1714], [-47.4913, -22.1617], [-47.4905, -22.1876], [-47.4698, -22.2454], [-47.462, -22.3113], [-47.4835, -22.3767], [-47.4673, -22.4133]]]}, "properties": {"codarea": "35027", "nome": "Limeira", "valores": {"2023": 138578.0}, "escolas": {"2023": 427}}}, {"type": "Feature", "geometry": {"type": "Polygon", "coordinates": [[[-50.5171, -21.7099], [-50.5706, -21.6919], [-50.6096, -21.6569], [-50.6152, -21.6589], [-50.6096, -21.6897], [-50.638, -21.7455], [-50.6349, -21.7666], [-50.7184, -21.7995], [-50.7106, -21.8468], [-50.7371, -21.8776], [-50.7737, -21.9044], [-50.8139, -21.9514], [-50.8647, -21.969], [-50.7804, -22.0025], [-50.7102, -22.0152], [-50.7051, -22.0216], [-50.6552, -22.0353], [-50.547, -22.0873], [-50.5211, -22.111], [-50.4852, -22.1522], [-50.4517, -22.1731], [-50.3944, -22.1874], [-50.3459, -22.1885], [-50.2943, -22.1504], [-50.2774, -22.1184], [-50.2876, -22.0841], [-50.2591, -22.0559], [-50.2903, -22.0395], [-50.2484, -21.991], [-50.2847, -21.9595], [-50.2705, -21.8417], [-50.2498, -21.8834], [-50.223, -21.8613], [-50.1591, -21.8581], [-50.1281, -21.817], [-50.1532, -21.786], [-50.2594, -21.7376], [-50.2733, -21.7093], [-50.3085, -21.7145], [-50.3606, -21.7242], [-50.3997, -21.7166], [-50.4541, -21.6882], [-50.496, -21.7153], [-50.5171, -21.7099]]]}, "properties": {"codarea": "35037", "nome": "Tupã", "valores": {"2023": 22513.0}, "escolas": {"2023": 92}}}, {"type": "Feature", "geometry": {"type": "Polygon", "coordinates": [[[-48.7744, -21.1092], [-48.7769, -21.0992], [-48.7251, -21.0734], [-48.6938, -21.0069], [-48.7183, -20.9777], [-48.7856, -20.934], [-48.7441, -20.894], [-48.7448, -20.8398], [-48.7194, -20.813], [-48.7263, -20.7656], [-48.7537, -20.7429], [-48.7924, -20.7253], [-48.8207, -20.7718], [-48.8421, -20.7722], [-48.8917, -20.8238], [-48.9201, -20.8133], [-48.9491, -20.8693], [-48.9841, -20.8485], [-49.0223, -20.8512], [-49.079, -20.8118], [-49.101, -20.8587], [-49.1091, -20.9395], [-49.1327, -20.9692], [-49.1111, -21.0271], [-49.1312, -21.0705], [-49.1199, -21.0852], [-49.1231, -21.1364], [-49.1533, -21.1847], [-49.1449, -21.1874], [-49.1094, -21.1973], [-49.0913, -21.2212], [-49.0591, -21.2422], [-49.0106, -21.2534], [-48.9937, -21.2861], [-48.9595, -21.2789], [-48.9201, -21.2996], [-48.9233, -21.3452], [-48.9002, -21.3706], [-48.873, -21.3943], [-48.8484, -21.3913], [-48.7735, -21.4276], [-48.7543, -21.4207], [-48.7325, -21.2947], [-48.7414, -21.2456], [-48.6955, -21.2209], [-48.707, -21.2068], [-48.7287, -21.1649], [-48.7744, -21.1092]]]}, "properties": {"codarea": "35005", "nome": "Catanduva", "valores": {"2023": 43618.0}, "escolas": {"2023": 169}}}, {"type": "Feature", "geometry": {"type": "Polygon", "coordinates": [[[-47.227, -22.57], [-47.2114, -22.6021], [-47.1281, -22.6133], [-47.0974, -22.6353], [-47.0875, -22.5877], [-47.0548, -22.5707], [-47.0483, -22.5703], [-47.0314, -22.619], [-47.0147, -22.6086], [-46.9784, -22.6544], [-46.9393, -22.6577], [-46.9312, -22.6829], [-46.9307, -22.6821], [-46.8978, -22.6569], [-46.8987, -22.628], [-46.8637, -22.6025], [-46.8693, -22.5839], [-46.8325, -22.579], [-46.7977, -22.5414], [-46.7372, -22.5474], [-46.7126, -22.5037], [-46.681, -22.474], [-46.6583, -22.4731], [-46.6163, -22.4386], [-46.6665, -22.4151], [-46.6609, -22.366], [-46.7233, -22.3066], [-46.7683, -22.2861], [-46.7913, -22.2973], [-46.8229, -22.2674], [-46.9, -22.2457], [-46.8971, -22.2049], [-46.8999, -22.1757], [-46.8653, -22.1313], [-46.8749, -22.1131], [-46.937, -22.1464], [-47.0172, -22.1146], [-47.0462, -22.1156], [-47.1005, -22.0673], [-47.1483, -22.1092], [-47.1975, -22.0987], [-47.1912, -22.1736], [-47.2242, -22.2063], [-47.2303, -22.2568], [-47.1843, -22.292], [-47.0838, -22.2998], [-47.0769, -22.3286], [-47.0895, -22.3859], [-47.136, -22.4699], [-47.1535, -22.4817], [-47.1889, -22.4327], [-47.2115, -22.4312], [-47.2529, -22.4769], [-47.2366, -22.5206], [-47.2118, -22.538], [-47.227, -22.57]]]}, "properties": {"codarea": "35031", "nome": "Mogi Mirim", "valores": {"2023": 91761.0}, "escolas": {"2023": 328}}}, {"type": "Feature", "geometry": {"type": "Polygon", "coordinates": [[[-46.2477, -23.4056], [-46.2023, -23.3678], [-46.1575, -23.3428], [-46.1015, -23.3086], [-46.1349, -23.2879], [-46.1457, -23.2568], [-46.1621, -23.2346], [-46.2274, -23.1898], [-46.2622, -23.1864], [-46.31, -23.205], [-46.3113, -23.2271], [-46.3642, -23.2741], [-46.4185, -23.3163], [-46.448, -23.3576], [-46.4959, -23.3482], [-46.5354, -23.3633], [-46.5666, -23.4154], [-46.5705, -23.4588], [-46.547, -23.5064], [-46.5111, -23.4788], [-46.4605, -23.483], [-46.3867, -23.4747], [-46.3938, -23.4486], [-46.3584, -23.4373], [-46.349, -23.42], [-46.2706, -23.4299], [-46.2477, -23.4056]]]}, "properties": {"codarea": "35059", "nome": "Guarulhos", "valores": {"2023": 351616.0}, "escolas": {"2023": 774}}}, {"type": "Feature", "geometry": {"type": "Polygon", "coordinates": [[[-50.35, -22.479], [-50.3358, -22.4547], [-50.2368, -22.3793], [-50.3242, -22.3593], [-50.3325, -22.3391], [-50.3253, -22.2714], [-50.2993, -22.2087], [-50.3459, -22.1885], [-50.3944, -22.1874], [-50.4517, -22.1731], [-50.4852, -22.1522], [-50.5211, -22.111], [-50.547, -22.0873], [-50.6552, -22.0353], [-50.7051, -22.0216], [-50.7058, -22.022], [-50.7252, -22.0913], [-50.7096, -22.1393], [-50.7255, -22.1669], [-50.7288, -22.2358], [-50.7166, -22.2497], [-50.7589, -22.3035], [-50.77, -22.3498], [-50.7643, -22.3875], [-50.7835, -22.4352], [-50.8296, -22.4283], [-50.8437, -22.4469], [-50.8313, -22.4841], [-50.8574, -22.5299], [-50.842, -22.5504], [-50.8461, -22.618], [-50.8276, -22.6453], [-50.8878, -22.6561], [-50.9059, -22.6378], [-50.945, -22.675], [-50.9623, -22.6331], [-50.973, -22.5443], [-50.9865, -22.5185], [-51.0318, -22.5125], [-51.0282, -22.4801], [-51.0633, -22.4737], [-51.1, -22.4869], [-51.1455, -22.4801], [-51.2172, -22.5349], [-51.2707, -22.5449], [-51.2837, -22.5888], [-51.2824, -22.6429], [-51.2982, -22.6735], [-51.2652, -22.6677], [-51.2137, -22.7237], [-51.176, -22.7388], [-51.1279, -22.76], [-51.0576, -22.7661], [-51.0044, -22.7937], [-50.9787, -22.7826], [-50.9277, -22.7977], [-50.8953, -22.7943], [-50.8424, -22.8314], [-50.8236, -22.8661], [-50.7931, -22.9051], [-50.7959, -22.9512], [-50.7098, -22.9534], [-50.6821, -22.9062], [-50.6373, -22.9069], [-50.6038, -22.9232], [-50.5772, -22.904], [-50.53, -22.9191], [-50.5268, -22.9348], [-50.4257, -22.9442], [-50.4164, -22.9128], [-50.3592, -22.9161], [-50.3402, -22.9481], [-50.2756, -22.9316], [-50.2432, -22.951], [-50.2039, -22.9528], [-50.1331, -22.9399], [-50.0528, -22.9055], [-50.0087, -22.7867], [-50.0101, -22.7843], [-49.9736, -22.6878], [-49.9022, -22.6666], [-49.8909, -22.6554], [-49.8879, -22.5255], [-49.9263, -22.5408], [-49.9818, -22.5303], [-49.9995, -22.4976], [-50.0268, -22.5113], [-50.0607, -22.4989], [-50.0692, -22.493], [-50.0879, -22.4905], [-50.1192, -22.5593], [-50.1388, -22.5739], [-50.1692, -22.5926], [-50.1861, -22.544], [-50.2244, -22.5269], [-50.2644, -22.5627], [-50.3013, -22.5457], [-50.3285, -22.5263], [-50.35, -22.479]]]}, "properties": {"codarea": "35039", "nome": "Assis", "valores": {"2023": 56589.0}, "escolas": {"2023": 220}}}, {"type": "Feature", "geometry": {"type": "Polygon", "coordinates": [[[-46.5154, -23.2375], [-46.4698, -23.2828], [-46.4484, -23.2701], [-46.4185, -23.3163], [-46.3642, -23.2741], [-46.3113, -23.2271], [-46.31, -23.205], [-46.2622, -23.1864], [-46.2151, -23.1084], [-46.2052, -23.0849], [-46.1614, -23.0661], [-46.1178, -23.0055], [-46.0866, -22.985], [-46.0826, -22.9855], [-46.052, -22.9683], [-46.0412, -22.9138], [-46.0507, -22.897], [-46.0952, -22.8944], [-46.1391, -22.9228], [-46.1413, -22.8681], [-46.1922, -22.8652], [-46.2574, -22.8909], [-46.279, -22.8783], [-46.3449, -22.9052], [-46.3763, -22.8771], [-46.3745, -22.8202], [-46.4042, -22.8072], [-46.4428, -22.8245], [-46.5275, -22.8269], [-46.5827, -22.8508], [-46.6245, -22.833], [-46.6232, -22.8065], [-46.6609, -22.7688], [-46.7081, -22.7795], [-46.7609, -22.8479], [-46.798, -22.8344], [-46.8371, -22.8434], [-46.8584, -22.8362], [-46.8507, -22.8766], [-46.8785, -22.9271], [-46.8785, -22.9275], [-46.9262, -22.9745], [-46.9105, -23.0175], [-46.916, -23.0457], [-46.8653, -23.0764], [-46.8469, -23.0976], [-46.7926, -23.1028], [-46.8083, -23.139], [-46.7864, -23.1532], [-46.7729, -23.1755], [-46.7153, -23.1917], [-46.7111, -23.2115], [-46.7041, -23.2521], [-46.6384, -23.2577], [-46.6371, -23.2581], [-46.6151, -23.2273], [-46.5454, -23.2414], [-46.5154, -23.2375]]]}, "properties": {"codarea": "35048", "nome": "Bragança Paulista", "valores": {"2023": 135082.0}, "escolas": {"2023": 478}}}, {"type": "Feature", "geometry": {"type": "Polygon", "coordinates": [[[-50.5056, -20.7616], [-50.4322, -20.7975], [-50.3838, -20.8094], [-50.373, -20.854], [-50.3363, -20.8461], [-50.3232, -20.8728], [-50.2767, -20.8836], [-50.2628, -20.9058], [-50.181, -20.9006], [-50.1639, -20.8749], [-50.1213, -20.8311], [-50.1141, -20.7635], [-50.123, -20.683], [-50.0885, -20.6307], [-50.114, -20.6003], [-50.1286, -20.5574], [-50.1202, -20.5217], [-50.1383, -20.5211], [-50.1544, -20.5049], [-50.2029, -20.4814], [-50.2258, -20.4951], [-50.2852, -20.4698], [-50.3113, -20.4694], [-50.373, -20.4727], [-50.4458, -20.483], [-50.4485, -20.4862], [-50.528, -20.5089], [-50.5541, -20.5283], [-50.6249, -20.5081], [-50.6555, -20.5169], [-50.6793, -20.5301], [-50.725, -20.5269], [-50.7687, -20.5447], [-50.7645, -20.6214], [-50.8018, -20.6024], [-50.7998, -20.6714], [-50.751, -20.6814], [-50.7229, -20.7068], [-50.6855, -20.7078], [-50.6827, -20.7329], [-50.6024, -20.7729], [-50.5056, -20.7616]]]}, "properties": {"codarea": "35006", "nome": "Auriflama", "valores": {"2023": 7710.0}, "escolas": {"2023": 46}}}, {"type": "Feature", "geometry": {"type": "Polygon", "coordinates": [[[-49.6242, -23.5233], [-49.6002, -23.5356], [-49.6028, -23.584], [-49.621, -23.6111], [-49.6021, -23.6521], [-49.5747, -23.676], [-49.5492, -23.704], [-49.5673, -23.7368], [-49.5597, -23.7936], [-49.5727, -23.827], [-49.608, -23.8394], [-49.587, -23.8889], [-49.5358, -23.9282], [-49.5223, -23.9166], [-49.4923, -23.9934], [-49.4575, -24.0495], [-49.4298, -24.0687], [-49.4087, -24.1069], [-49.3366, -24.1376], [-49.3507, -24.2208], [-49.3054, -24.2514], [-49.2869, -24.3026], [-49.2542, -24.3179], [-49.2011, -24.3451], [-49.2535, -24.405], [-49.1872, -24.3764], [-49.1199, -24.3301], [-49.0933, -24.3185], [-49.0752, -24.2843], [-49.1079, -24.2507], [-49.063, -24.2432], [-48.987, -24.3123], [-48.9426, -24.2564], [-48.8861, -24.2037], [-48.8654, -24.1606], [-48.8267, -24.174], [-48.8218, -24.1281], [-48.7618, -24.1323], [-48.7298, -24.1157], [-48.6608, -24.1433], [-48.6462, -24.1172], [-48.5966, -24.0902], [-48.5694, -24.0906], [-48.5688, -24.0273], [-48.5499, -24.0037], [-48.5819, -23.9829], [-48.5517, -23.9347], [-48.4752, -23.8904], [-48.4314, -23.8925], [-48.3491, -23.8311], [-48.3926, -23.7812], [-48.3949, -23.7252], [-48.4078, -23.7146], [-48.4782, -23.6473], [-48.4786, -23.6092], [-48.5064, -23.5486], [-48.5349, -23.5411], [-48.5771, -23.5763], [-48.6095, -23.5818], [-48.6219, -23.594], [-48.678, -23.5876], [-48.6936, -23.6009], [-48.7649, -23.6135], [-48.781, -23.6428], [-48.8002, -23.6393], [-48.8334, -23.5983], [-48.9252, -23.6264], [-48.9783, -23.6234], [-49.0257, -23.6504], [-49.0545, -23.6862], [-49.1327, -23.7215], [-49.14, -23.702], [-49.1363, -23.6616], [-49.122, -23.6459], [-49.1266, -23.5815], [-49.1176, -23.5602], [-49.1607, -23.5429], [-49.1624, -23.4864], [-49.2131, -23.4175], [-49.2583, -23.408], [-49.2921, -23.4174], [-49.3173, -23.4006], [-49.3605, -23.4351], [-49.3233, -23.4687], [-49.3485, -23.5135], [-49.3311, -23.5254], [-49.4024, -23.5368], [-49.453, -23.5276], [-49.4764, -23.5409], [-49.5136, -23.5077], [-49.5667, -23.4942], [-49.5981, -23.4582], [-49.6214, -23.4933], [-49.6242, -23.5233]]]}, "properties": {"codarea": "35041", "nome": "Itapeva", "valores": {"2023": 57744.0}, "escolas": {"2023": 243}}}, {"type": "Feature", "geometry": {"type": "Polygon", "coordinates": [[[-48.8609, -22.0906], [-48.908, -22.1246], [-48.917, -22.1471], [-48.9922, -22.2169], [-49.0343, -22.207], [-49.0541, -22.2381], [-49.0366, -22.2737], [-48.9342, -22.3408], [-48.9115, -22.3384], [-48.9147, -22.3985], [-48.8808, -22.3844], [-48.8547, -22.4091], [-48.861, -22.4841], [-48.827, -22.4884], [-48.8165, -22.5415], [-48.7635, -22.5586], [-48.674, -22.5517], [-48.6532, -22.5324], [-48.6451, -22.5371], [-48.6166, -22.5744], [-48.5608, -22.5872], [-48.4903, -22.5461], [-48.4519, -22.5394], [-48.3845, -22.58], [-48.3654, -22.6089], [-48.3341, -22.6254], [-48.2782, -22.5957], [-48.2615, -22.6054], [-48.2477, -22.5785], [-48.2601, -22.5404], [-48.2349, -22.5204], [-48.2723, -22.5286], [-48.2785, -22.4985], [-48.243, -22.4794], [-48.2787, -22.4271], [-48.2393, -22.3675], [-48.2931, -22.2673], [-48.3279, -22.2646], [-48.3143, -22.1987], [-48.3423, -22.181], [-48.3879, -22.1591], [-48.3962, -22.1218], [-48.4449, -22.0632], [-48.5033, -22.0194], [-48.5443, -22.0345], [-48.5644, -22.0048], [-48.6069, -21.9877], [-48.6424, -21.9701], [-48.6794, -21.9288], [-48.6789, -21.9278], [-48.7267, -21.891], [-48.8326, -21.8949], [-48.8776, -21.921], [-48.8922, -21.9067], [-48.903, -21.9333], [-48.8624, -21.9595], [-48.8877, -22.0061], [-48.8672, -22.0241], [-48.8563, -22.0336], [-48.8609, -22.0906]]]}, "properties": {"codarea": "35021", "nome": "Jaú", "valores": {"2023": 75449.0}, "escolas": {"2023": 303}}}, {"type": "Feature", "geometry": {"type": "Polygon", "coordinates": [[[-48.2397, -24.9914], [-48.2086, -25.0319], [-48.2161, -25.0767], [-48.1816, -25.1338], [-48.1585, -25.1499], [-48.1825, -25.205], [-48.113, -25.2509], [-48.0235, -25.2309], [-48.0968, -25.2972], [-48.0961, -25.3089], [-48.0469, -25.2585], [-47.9238, -25.1605], [-47.908, -25.1181], [-47.9095, -25.0529], [-47.8429, -24.9766], [-47.7315, -24.8806], [-47.623, -24.7991], [-47.561, -24.7579], [-47.4248, -24.6851], [-47.4153, -24.6756], [-47.245, -24.574], [-47.1447, -24.4923], [-47.0779, -24.4482], [-47.1177, -24.4176], [-47.1208, -24.3648], [-47.1878, -24.3662], [-47.2344, -24.3765], [-47.2474, -24.3618], [-47.3003, -24.3599], [-47.3195, -24.3395], [-47.3324, -24.2881], [-47.2869, -24.2778], [-47.2955, -24.2223], [-47.2728, -24.1827], [-47.2883, -24.1621], [-47.2674, -24.115], [-47.2273, -24.0822], [-47.1605, -24.0526], [-47.1628, -24.0237], [-47.1271, -24.0087], [-47.2, -24.0006], [-47.244, -24.0218], [-47.3122, -24.0097], [-47.3552, -24.0218], [-47.373, -24.0453], [-47.4261, -24.0691], [-47.452, -24.0516], [-47.4773, -24.0813], [-47.4988, -24.0529], [-47.5628, -24.0396], [-47.584, -24.0763], [-47.636, -24.1005], [-47.6138, -24.0447], [-47.6803, -24.0453], [-47.7727, -24.1344], [-47.8633, -24.114], [-47.8948, -24.0793], [-47.9531, -24.1198], [-47.9812, -24.1135], [-48.0088, -24.1354], [-48.0494, -24.1376], [-48.0581, -24.1772], [-48.1063, -24.2015], [-48.1395, -24.1944], [-48.1443, -24.2222], [-48.2049, -24.2633], [-48.2414, -24.2631], [-48.281, -24.2819], [-48.3169, -24.313], [-48.361, -24.2828], [-48.3831, -24.3042], [-48.3539, -24.3267], [-48.3684, -24.3903], [-48.3515, -24.4592], [-48.3926, -24.4901], [-48.3981, -24.524], [-48.4286, -24.532], [-48.4023, -24.5713], [-48.4475, -24.5993], [-48.4646, -24.66], [-48.5291, -24.6878], [-48.5381, -24.7262], [-48.5019, -24.746], [-48.5183, -24.781], [-48.5558, -24.8062], [-48.5677, -24.8488], [-48.5497, -24.8675], [-48.5664, -24.9168], [-48.5674, -24.9723], [-48.5981, -25.0033], [-48.5796, -25.0531], [-48.5563, -25.0843], [-48.5302, -25.1008], [-48.4809, -25.037], [-48.474, -25.0126], [-48.4119, -24.9804], [-48.3799, -24.9959], [-48.3512, -25.0365], [-48.2846, -25.0392], [-48.2696, -24.9975], [-48.2397, -24.9914]]]}, "properties": {"codarea": "35055", "nome": "Registro", "valores": {"2023": 59942.0}, "escolas": {"2023": 315}}}, {"type": "Feature", "geometry": {"type": "Polygon", "coordinates": [[[-48.5101, -20.2987], [-48.52, -20.2459], [-48.5764, -20.2054], [-48.5935, -20.175], [-48.6469, -20.167], [-48.7296, -20.1503], [-48.7811, -20.1639], [-48.8221, -20.1615], [-48.8554, -20.1801], [-48.8534, -20.215], [-48.8871, -20.2753], [-48.8755, -20.3184], [-48.8784, -20.3561], [-48.8671, -20.3989], [-48.8865, -20.4369], [-48.8873, -20.4903], [-48.8522, -20.5448], [-48.8311, -20.5709], [-48.8457, -20.625], [-48.8407, -20.6519], [-48.805, -20.6526], [-48.7866, -20.6894], [-48.7924, -20.7253], [-48.7537, -20.7429], [-48.7263, -20.7656], [-48.7194, -20.813], [-48.6975, -20.8369], [-48.6508, -20.8337], [-48.636, -20.819], [-48.6094, -20.8342], [-48.5493, -20.7972], [-48.4733, -20.7998], [-48.4476, -20.7877], [-48.4371, -20.7527], [-48.4915, -20.6938], [-48.4879, -20.6368], [-48.5257, -20.6351], [-48.4781, -20.5832], [-48.4323, -20.5611], [-48.4099, -20.5755], [-48.3446, -20.5753], [-48.3837, -20.5372], [-48.4044, -20.5252], [-48.4466, -20.4596], [-48.4779, -20.4281], [-48.4819, -20.3514], [-48.5101, -20.2987]]]}, "properties": {"codarea": "35009", "nome": "Barretos", "valores": {"2023": 34799.0}, "escolas": {"2023": 128}}}, {"type": "Feature", "geometry": {"type": "Polygon", "coordinates": [[[-48.136, -21.2683], [-48.1415, -21.3176], [-48.1457, -21.3701], [-48.1135, -21.4206], [-48.1089, -21.4293], [-48.0743, -21.4792], [-48.0312, -21.5149], [-48.0273, -21.5389], [-47.9642, -21.5983], [-47.9272, -21.576], [-47.8631, -21.6116], [-47.818, -21.6156], [-47.8112, -21.6477], [-47.8301, -21.6685], [-47.8119, -21.6991], [-47.7677, -21.6917], [-47.7368, -21.7119], [-47.7241, -21.7062], [-47.682, -21.7158], [-47.6641, -21.7424], [-47.6202, -21.7454], [-47.5879, -21.7345], [-47.5699, -21.7843], [-47.5242, -21.8023], [-47.4385, -21.7808], [-47.4248, -21.7557], [-47.36, -21.785], [-47.3469, -21.8065], [-47.2934, -21.7523], [-47.3383, -21.6812], [-47.3288, -21.6445], [-47.3724, -21.6498], [-47.3992, -21.6137], [-47.3642, -21.5932], [-47.357, -21.5699], [-47.3055, -21.5508], [-47.2775, -21.5277], [-47.2787, -21.4684], [-47.2642, -21.4513], [-47.2981, -21.4483], [-47.3329, -21.4148], [-47.3797, -21.3953], [-47.4151, -21.3432], [-47.4588, -21.367], [-47.4753, -21.2988], [-47.5035, -21.2402], [-47.5019, -21.2079], [-47.5278, -21.2005], [-47.5825, -21.1727], [-47.6111, -21.1817], [-47.6282, -21.1483], [-47.559, -21.1076], [-47.5181, -21.0979], [-47.5406, -21.0346], [-47.567, -21.0252], [-47.6069, -20.9851], [-47.6745, -20.9364], [-47.7185, -20.9384], [-47.7662, -20.9309], [-47.7797, -20.8944], [-47.8182, -20.8943], [-47.8401, -20.9107], [-47.8706, -20.8945], [-47.8902, -20.9096], [-47.9227, -20.883], [-47.9397, -20.8999], [-47.9854, -20.8764], [-48.0349, -20.9054], [-48.0579, -20.9304], [-48.1037, -20.9001], [-48.179, -20.8873], [-48.1741, -20.9192], [-48.1426, -21.0013], [-48.1246, -21.0893], [-48.1536, -21.097], [-48.1869, -21.1304], [-48.169, -21.1614], [-48.1706, -21.2158], [-48.136, -21.2683]]]}, "properties": {"codarea": "35014", "nome": "Ribeirão Preto", "valores": {"2023": 243401.0}, "escolas": {"2023": 745}}}, {"type": "Feature", "geometry": {"type": "Polygon", "coordinates": [[[-46.8007, -23.4704], [-46.8233, -23.4224], [-46.823, -23.401], [-46.8237, -23.331], [-46.8381, -23.2878], [-46.8675, -23.2779], [-46.9019, -23.3076], [-46.9379, -23.3219], [-46.9591, -23.3268], [-47.0429, -23.3523], [-47.0306, -23.3717], [-47.0375, -23.4356], [-46.995, -23.507], [-46.9916, -23.5294], [-47.0281, -23.5813], [-46.9815, -23.6022], [-46.9111, -23.5631], [-46.876, -23.5653], [-46.8173, -23.5819], [-46.8078, -23.6091], [-46.8064, -23.584], [-46.7731, -23.5701], [-46.76, -23.5292], [-46.7748, -23.4644], [-46.7995, -23.4714], [-46.8007, -23.4704]]]}, "properties": {"codarea": "35057", "nome": "Osasco", "valores": {"2023": 509138.0}, "escolas": {"2023": 1106}}}, {"type": "Feature", "geometry": {"type": "Polygon", "coordinates": [[[-48.636, -20.819], [-48.6508, -20.8337], [-48.6975, -20.8369], [-48.7194, -20.813], [-48.7448, -20.8398], [-48.7441, -20.894], [-48.7856, -20.934], [-48.7183, -20.9777], [-48.6938, -21.0069], [-48.7251, -21.0734], [-48.7769, -21.0992], [-48.7744, -21.1092], [-48.7287, -21.1649], [-48.707, -21.2068], [-48.6955, -21.2209], [-48.7414, -21.2456], [-48.7325, -21.2947], [-48.7543, -21.4207], [-48.7257, -21.42], [-48.7056, -21.4904], [-48.6625, -21.491], [-48.6548, -21.5441], [-48.6292, -21.5587], [-48.5956, -21.5142], [-48.5619, -21.5319], [-48.4711, -21.5127], [-48.4639, -21.4898], [-48.3941, -21.4922], [-48.3693, -21.5045], [-48.324, -21.4844], [-48.2826, -21.4813], [-48.2347, -21.4738], [-48.1135, -21.4206], [-48.1457, -21.3701], [-48.1415, -21.3176], [-48.136, -21.2683], [-48.1706, -21.2158], [-48.169, -21.1614], [-48.1869, -21.1304], [-48.1536, -21.097], [-48.1246, -21.0893], [-48.1426, -21.0013], [-48.1741, -20.9192], [-48.179, -20.8873], [-48.2077, -20.8754], [-48.2404, -20.8514], [-48.2552, -20.8063], [-48.2435, -20.7766], [-48.2606, -20.7383], [-48.2967, -20.7202], [-48.32, -20.7255], [-48.3383, -20.6955], [-48.4196, -20.7496], [-48.4371, -20.7527], [-48.4476, -20.7877], [-48.4733, -20.7998], [-48.5493, -20.7972], [-48.6094, -20.8342], [-48.636, -20.819]]]}, "properties": {"codarea": "35013", "nome": "Jaboticabal", "valores": {"2023": 85189.0}, "escolas": {"2023": 363}}}, {"type": "Feature", "geometry": {"type": "Polygon", "coordinates": [[[-49.8194, -23.077], [-49.8095, -23.0892], [-49.7892, -23.1033], [-49.7256, -23.1094], [-49.7165, -23.1484], [-49.6777, -23.1749], [-49.6538, -23.212], [-49.6271, -23.2818], [-49.6217, -23.3319], [-49.6379, -23.3495], [-49.5954, -23.3671], [-49.6025, -23.4085], [-49.5818, -23.429], [-49.5981, -23.4582], [-49.5667, -23.4942], [-49.5136, -23.5077], [-49.4764, -23.5409], [-49.453, -23.5276], [-49.4024, -23.5368], [-49.3311, -23.5254], [-49.3485, -23.5135], [-49.3233, -23.4687], [-49.3605, -23.4351], [-49.3173, -23.4006], [-49.2921, -23.4174], [-49.2583, -23.408], [-49.2131, -23.4175], [-49.2173, -23.2985], [-49.1995, -23.2914], [-49.2108, -23.2455], [-49.2431, -23.2073], [-49.2454, -23.1448], [-49.2413, -23.073], [-49.222, -23.0365], [-49.2459, -23.0125], [-49.2563, -22.9755], [-49.3037, -22.9527], [-49.2922, -22.9295], [-49.3088, -22.8978], [-49.3696, -22.8834], [-49.3759, -22.7775], [-49.3798, -22.7339], [-49.3397, -22.6659], [-49.351, -22.6426], [-49.4189, -22.6212], [-49.4536, -22.584], [-49.4519, -22.5764], [-49.4897, -22.5419], [-49.503, -22.5138], [-49.5662, -22.575], [-49.5851, -22.6056], [-49.5989, -22.6649], [-49.6312, -22.624], [-49.6879, -22.6011], [-49.7071, -22.6187], [-49.7365, -22.5884], [-49.748, -22.5401], [-49.772, -22.5006], [-49.8176, -22.5261], [-49.8854, -22.5058], [-49.8879, -22.5255], [-49.8909, -22.6554], [-49.9022, -22.6666], [-49.9736, -22.6878], [-50.0101, -22.7843], [-50.0087, -22.7867], [-50.0528, -22.9055], [-50.0146, -22.9113], [-49.9862, -22.8975], [-49.9614, -22.9309], [-49.9742, -22.9545], [-49.9725, -22.9585], [-49.9545, -22.9784], [-49.9017, -22.9993], [-49.9116, -23.0511], [-49.8674, -23.0717], [-49.8337, -23.0659], [-49.8194, -23.077]]]}, "properties": {"codarea": "35040", "nome": "Ourinhos", "valores": {"2023": 66674.0}, "escolas": {"2023": 276}}}, {"type": "Feature", "geometry": {"type": "Polygon", "coordinates": [[[-46.2024, -23.7513], [-46.2396, -23.7359], [-46.2784, -23.7703], [-46.3203, -23.8031], [-46.3386, -23.7817], [-46.4103, -23.8154], [-46.4962, -23.8996], [-46.5405, -23.9235], [-46.5645, -23.9529], [-46.6119, -23.9678], [-46.6499, -24.0016], [-46.6425, -24.0102], [-46.5931, -23.9975], [-46.6089, -24.0378], [-46.6044, -24.0897], [-46.493, -24.0385], [-46.4156, -24.0157], [-46.3919, -23.9986], [-46.3551, -23.9711], [-46.3063, -23.9931], [-46.3201, -24.0243], [-46.2397, -23.9908], [-46.1978, -23.9948], [-46.1656, -23.9442], [-46.1332, -23.8565], [-46.0887, -23.8221], [-46.0388, -23.8155], [-45.9726, -23.7854], [-45.8983, -23.7654], [-45.8424, -23.7582], [-45.7948, -23.7156], [-45.7961, -23.683], [-45.8329, -23.6698], [-45.8448, -23.6438], [-45.9161, -23.6669], [-45.9361, -23.7012], [-45.9765, -23.694], [-46.0774, -23.7326], [-46.1009, -23.7184], [-46.1705, -23.7324], [-46.2024, -23.7513]]]}, "properties": {"codarea": "35063", "nome": "Santos", "valores": {"2023": 373079.0}, "escolas": {"2023": 1011}}}, {"type": "Feature", "geometry": {"type": "Polygon", "coordinates": [[[-45.9161, -23.6669], [-45.8448, -23.6438], [-45.8329, -23.6698], [-45.7961, -23.683], [-45.7417, -23.6682], [-45.7196, -23.6489], [-45.7025, -23.6369], [-45.7396, -23.5833], [-45.7465, -23.5389], [-45.7888, -23.4929], [-45.8136, -23.4993], [-45.8406, -23.4723], [-45.9041, -23.5053], [-45.9619, -23.4971], [-45.9519, -23.4514], [-45.9874, -23.4198], [-46.0025, -23.3853], [-46.0295, -23.3918], [-46.1015, -23.3086], [-46.1575, -23.3428], [-46.2023, -23.3678], [-46.2477, -23.4056], [-46.2706, -23.4299], [-46.349, -23.42], [-46.3584, -23.4373], [-46.3938, -23.4486], [-46.3867, -23.4747], [-46.3664, -23.5122], [-46.3923, -23.5305], [-46.3776, -23.5878], [-46.3948, -23.6125], [-46.3839, -23.6177], [-46.3834, -23.6177], [-46.3385, -23.6779], [-46.3307, -23.7089], [-46.3281, -23.7284], [-46.3219, -23.7444], [-46.2784, -23.7703], [-46.2396, -23.7359], [-46.2024, -23.7513], [-46.1705, -23.7324], [-46.1009, -23.7184], [-46.0774, -23.7326], [-45.9765, -23.694], [-45.9361, -23.7012], [-45.9161, -23.6669]]]}, "properties": {"codarea": "35062", "nome": "Mogi das Cruzes", "valores": {"2023": 363837.0}, "escolas": {"2023": 1003}}}, {"type": "Feature", "geometry": {"type": "Polygon", "coordinates": [[[-47.704, -23.216], [-47.6841, -23.1952], [-47.714, -23.1407], [-47.751, -23.1221], [-47.7897, -23.1523], [-47.8189, -23.1325], [-47.8094, -23.0981], [-47.8213, -23.0724], [-47.7919, -23.049], [-47.7572, -22.9978], [-47.7725, -22.9755], [-47.8058, -22.9826], [-47.8267, -22.9422], [-47.8089, -22.8777], [-47.8448, -22.9016], [-47.8688, -22.899], [-47.8668, -22.8607], [-47.9308, -22.8833], [-47.9515, -22.9245], [-47.9338, -22.9451], [-47.9369, -23.0146], [-47.9676, -23.0302], [-48.0061, -23.0697], [-48.0338, -23.0689], [-48.057, -23.1038], [-48.0917, -23.0865], [-48.1595, -23.0867], [-48.1921, -23.1241], [-48.1901, -23.1752], [-48.2249, -23.1962], [-48.2608, -23.2299], [-48.2414, -23.2802], [-48.1949, -23.2951], [-48.1552, -23.2618], [-48.1388, -23.2712], [-48.0812, -23.3279], [-48.0833, -23.3728], [-48.0537, -23.3887], [-48.0488, -23.4243], [-47.9999, -23.4307], [-47.9503, -23.4085], [-47.9231, -23.4615], [-47.87, -23.4455], [-47.8072, -23.4887], [-47.7584, -23.3994], [-47.7256, -23.3855], [-47.737, -23.3315], [-47.6827, -23.3349], [-47.6758, -23.3678], [-47.6096, -23.3571], [-47.578, -23.3637], [-47.5752, -23.3425], [-47.6089, -23.2985], [-47.6162, -23.2079], [-47.6295, -23.1916], [-47.6815, -23.2203], [-47.704, -23.216]]]}, "properties": {"codarea": "35043", "nome": "Tatuí", "valores": {"2023": 67453.0}, "escolas": {"2023": 262}}}, {"type": "Feature", "geometry": {"type": "Polygon", "coordinates": [[[-48.2393, -22.3675], [-48.2787, -22.4271], [-48.243, -22.4794], [-48.2785, -22.4985], [-48.2723, -22.5286], [-48.2349, -22.5204], [-48.1987, -22.5086], [-48.1728, -22.4761], [-48.1039, -22.5089], [-48.0595, -22.5134], [-48.0408, -22.5059], [-47.9158, -22.4247], [-47.857, -22.4306], [-47.8126, -22.4568], [-47.7929, -22.4482], [-47.7767, -22.4441], [-47.7238, -22.4928], [-47.6937, -22.4825], [-47.6686, -22.5101], [-47.6692, -22.5399], [-47.6544, -22.5209], [-47.6309, -22.5476], [-47.5827, -22.542], [-47.5627, -22.5266], [-47.5787, -22.5141], [-47.5778, -22.4705], [-47.5294, -22.4294], [-47.4673, -22.4133], [-47.4835, -22.3767], [-47.462, -22.3113], [-47.4698, -22.2454], [-47.4905, -22.1876], [-47.4913, -22.1617], [-47.5431, -22.1714], [-47.5503, -22.1508], [-47.5904, -22.1525], [-47.5993, -22.1791], [-47.6745, -22.1935], [-47.7071, -22.2107], [-47.7132, -22.2401], [-47.7603, -22.1634], [-47.7998, -22.1282], [-47.8092, -22.1484], [-47.8999, -22.1576], [-47.9479, -22.1111], [-47.9931, -22.116], [-48.0449, -22.0732], [-48.0437, -22.1289], [-48.1076, -22.1802], [-48.1347, -22.1832], [-48.198, -22.148], [-48.256, -22.1546], [-48.2564, -22.1774], [-48.3143, -22.1987], [-48.3279, -22.2646], [-48.2931, -22.2673], [-48.2393, -22.3675]]]}, "properties": {"codarea": "35026", "nome": "Rio Claro", "valores": {"2023": 55900.0}, "escolas": {"2023": 172}}}, {"type": "Feature", "geometry": {"type": "Polygon", "coordinates": [[[-45.8418, -23.0412], [-45.8863, -23.0171], [-45.9324, -23.0204], [-45.8808, -22.9658], [-45.8938, -22.9417], [-45.8644, -22.8931], [-45.871, -22.8715], [-45.909, -22.8296], [-45.9565, -22.8498], [-46.0085, -22.8895], [-46.0507, -22.897], [-46.0412, -22.9138], [-46.052, -22.9683], [-46.0826, -22.9855], [-46.0866, -22.985], [-46.1178, -23.0055], [-46.1614, -23.0661], [-46.2052, -23.0849], [-46.2151, -23.1084], [-46.2622, -23.1864], [-46.2274, -23.1898], [-46.1621, -23.2346], [-46.1457, -23.2568], [-46.1349, -23.2879], [-46.1015, -23.3086], [-46.0295, -23.3918], [-46.0025, -23.3853], [-45.9874, -23.4198], [-45.9519, -23.4514], [-45.9619, -23.4971], [-45.9041, -23.5053], [-45.8406, -23.4723], [-45.8136, -23.4993], [-45.7888, -23.4929], [-45.7861, -23.4602], [-45.7641, -23.4408], [-45.7778, -23.4146], [-45.7545, -23.3891], [-45.7823, -23.3556], [-45.803, -23.3294], [-45.7937, -23.292], [-45.7766, -23.2641], [-45.7213, -23.2379], [-45.6408, -23.196], [-45.6095, -23.1635], [-45.5682, -23.1599], [-45.5222, -23.1763], [-45.5038, -23.2193], [-45.4674, -23.2246], [-45.397, -23.1807], [-45.3549, -23.1379], [-45.3285, -23.0851], [-45.3001, -23.092], [-45.3122, -23.0591], [-45.2942, -23.0271], [-45.3072, -23.0252], [-45.3292, -23.0131], [-45.3216, -22.976], [-45.3373, -22.9515], [-45.3326, -22.9102], [-45.3511, -22.8691], [-45.3239, -22.8556], [-45.346, -22.7886], [-45.3978, -22.7825], [-45.3969, -22.7494], [-45.4391, -22.7034], [-45.4759, -22.7201], [-45.5416, -22.7691], [-45.6144, -22.7971], [-45.6292, -22.8337], [-45.67, -22.8765], [-45.6664, -22.8817], [-45.6752, -22.9278], [-45.7047, -22.948], [-45.7251, -22.9694], [-45.8418, -23.0412]]]}, "properties": {"codarea": "35050", "nome": "São José dos Campos", "valores": {"2023": 358898.0}, "escolas": {"2023": 1047}}}, {"type": "Feature", "geometry": {"type": "Polygon", "coordinates": [[[-49.4455, -21.5241], [-49.4845, -21.5035], [-49.5471, -21.4227], [-49.5834, -21.3795], [-49.6284, -21.3544], [-49.697, -21.3627], [-49.7278, -21.3449], [-49.7461, -21.2968], [-49.7687, -21.3063], [-49.8316, -21.275], [-49.8181, -21.3031], [-49.8432, -21.3553], [-49.8686, -21.3926], [-49.8611, -21.4305], [-49.8722, -21.4689], [-49.9086, -21.5045], [-49.9158, -21.5575], [-49.9939, -21.5909], [-50.0609, -21.5839], [-50.0999, -21.6206], [-50.1077, -21.6839], [-50.1592, -21.6824], [-50.2459, -21.6967], [-50.2733, -21.7093], [-50.2594, -21.7376], [-50.1532, -21.786], [-50.1281, -21.817], [-50.0603, -21.8745], [-50.0111, -21.9252], [-49.9667, -21.9402], [-49.8821, -21.97], [-49.8143, -22.0032], [-49.7683, -22.0467], [-49.7407, -22.0262], [-49.7553, -22.0089], [-49.7342, -21.9406], [-49.6586, -21.8601], [-49.6107, -21.8705], [-49.5656, -21.8316], [-49.546, -21.8565], [-49.4565, -21.784], [-49.4313, -21.7794], [-49.4143, -21.7568], [-49.4046, -21.6947], [-49.3825, -21.6693], [-49.3316, -21.6515], [-49.3115, -21.6172], [-49.3285, -21.559], [-49.379, -21.5348], [-49.4117, -21.5444], [-49.4455, -21.5241]]]}, "properties": {"codarea": "35019", "nome": "Lins", "valores": {"2023": 35451.0}, "escolas": {"2023": 149}}}, {"type": "Feature", "geometry": {"type": "Polygon", "coordinates": [[[-46.823, -23.401], [-46.7355, -23.3881], [-46.7004, -23.4225], [-46.6698, -23.4186], [-46.6343, -23.4293], [-46.6002, -23.3882], [-46.5354, -23.3633], [-46.4959, -23.3482], [-46.448, -23.3576], [-46.4185, -23.3163], [-46.4484, -23.2701], [-46.4698, -23.2828], [-46.5154, -23.2375], [-46.5454, -23.2414], [-46.6151, -23.2273], [-46.6371, -23.2581], [-46.6384, -23.2577], [-46.7041, -23.2521], [-46.7438, -23.2503], [-46.7837, -23.2654], [-46.8026, -23.2571], [-46.8381, -23.2878], [-46.8237, -23.331], [-46.823, -23.401]]]}, "properties": {"codarea": "35058", "nome": "Franco da Rocha", "valores": {"2023": 129691.0}, "escolas": {"2023": 319}}}, {"type": "Feature", "geometry": {"type": "Polygon", "coordinates": [[[-46.7111, -23.2115], [-46.7153, -23.1917], [-46.7729, -23.1755], [-46.7864, -23.1532], [-46.8083, -23.139], [-46.7926, -23.1028], [-46.8469, -23.0976], [-46.8653, -23.0764], [-46.916, -23.0457], [-46.9425, -23.0666], [-46.9769, -23.0659], [-46.9954, -23.1155], [-47.0377, -23.057], [-47.0486, -23.0514], [-47.0883, -23.0555], [-47.0868, -23.0909], [-47.1438, -23.1009], [-47.1136, -23.1793], [-47.1128, -23.226], [-47.0509, -23.2406], [-47.0284, -23.2367], [-47.0142, -23.2636], [-46.9698, -23.2604], [-46.9723, -23.3012], [-46.9591, -23.3268], [-46.9379, -23.3219], [-46.9019, -23.3076], [-46.8675, -23.2779], [-46.8381, -23.2878], [-46.8026, -23.2571], [-46.7837, -23.2654], [-46.7438, -23.2503], [-46.7041, -23.2521], [-46.7111, -23.2115]]]}, "properties": {"codarea": "35047", "nome": "Jundiaí", "valores": {"2023": 169059.0}, "escolas": {"2023": 504}}}, {"type": "Feature", "geometry": {"type": "Polygon", "coordinates": [[[-45.5804, -22.6529], [-45.5599, -22.6276], [-45.5765, -22.6017], [-45.6181, -22.6379], [-45.6662, -22.6512], [-45.6811, -22.6363], [-45.6599, -22.599], [-45.6787, -22.5733], [-45.7268, -22.587], [-45.73, -22.6187], [-45.698, -22.6498], [-45.7428, -22.6592], [-45.7879, -22.6934], [-45.8116, -22.6987], [-45.8051, -22.7373], [-45.7326, -22.722], [-45.7122, -22.7698], [-45.7709, -22.8059], [-45.768, -22.836], [-45.8481, -22.8378], [-45.871, -22.8715], [-45.8644, -22.8931], [-45.8938, -22.9417], [-45.8808, -22.9658], [-45.9324, -23.0204], [-45.8863, -23.0171], [-45.8418, -23.0412], [-45.7251, -22.9694], [-45.7047, -22.948], [-45.6752, -22.9278], [-45.6664, -22.8817], [-45.67, -22.8765], [-45.6292, -22.8337], [-45.6144, -22.7971], [-45.5416, -22.7691], [-45.4759, -22.7201], [-45.4391, -22.7034], [-45.4, -22.6537], [-45.4204, -22.6212], [-45.4804, -22.5905], [-45.4888, -22.6288], [-45.5249, -22.6469], [-45.5804, -22.6529]]]}, "properties": {"codarea": "35049", "nome": "Campos do Jordão", "valores": {"2023": 15965.0}, "escolas": {"2023": 79}}}, {"type": "Feature", "geometry": {"type": "MultiPolygon", "coordinates": [[[[-45.7196, -23.6489], [-45.7417, -23.6682], [-45.7961, -23.683], [-45.7948, -23.7156], [-45.8424, -23.7582], [-45.7925, -23.7693], [-45.7633, -23.763], [-45.6641, -23.779], [-45.624, -23.7958], [-45.5551, -23.795], [-45.5024, -23.8412], [-45.4651, -23.8192], [-45.4309, -23.8325], [-45.3963, -23.8081], [-45.3969, -23.7806], [-45.427, -23.7084], [-45.4283, -23.6579], [-45.4066, -23.6239], [-45.3569, -23.6227], [-45.3114, -23.5757], [-45.2767, -23.5783], [-45.2442, -23.5937], [-45.2125, -23.5662], [-45.2194, -23.5289], [-45.1592, -23.5385], [-45.1739, -23.4963], [-45.0715, -23.4972], [-45.0539, -23.4167], [-45.015, -23.4187], [-44.9771, -23.4003], [-44.9416, -23.357], [-44.9057, -23.334], [-44.8369, -23.3696], [-44.8402, -23.3882], [-44.7506, -23.366], [-44.7242, -23.3676], [-44.7777, -23.3377], [-44.7874, -23.2991], [-44.8247, -23.2916], [-44.828, -23.2706], [-44.8893, -23.2266], [-44.8826, -23.2027], [-44.9317, -23.2093], [-44.9569, -23.2417], [-44.984, -23.2295], [-45.0137, -23.2635], [-45.0096, -23.3061], [-45.0742, -23.3042], [-45.0676, -23.343], [-45.1174, -23.3549], [-45.175, -23.3952], [-45.1757, -23.439], [-45.2734, -23.4831], [-45.307, -23.496], [-45.3489, -23.5479], [-45.4439, -23.5561], [-45.4573, -23.5771], [-45.4867, -23.5726], [-45.5236, -23.6045], [-45.54, -23.5968], [-45.5805, -23.6465], [-45.6311, -23.6572], [-45.6373, -23.6219], [-45.7025, -23.6369], [-45.7196, -23.6489]]], [[[-45.2904, -23.8691], [-45.2423, -23.8108], [-45.2327, -23.785], [-45.2633, -23.7415], [-45.34, -23.7275], [-45.3657, -23.809], [-45.4604, -23.8902], [-45.4443, -23.9341], [-45.4079, -23.9385], [-45.303, -23.9089], [-45.269, -23.965], [-45.2334, -23.948], [-45.2376, -23.9091], [-45.2904, -23.8691]]]]}, "properties": {"codarea": "35054", "nome": "Caraguatatuba", "valores": {"2023": 89062.0}, "escolas": {"2023": 316}}}, {"type": "Feature", "geometry": {"type": "Polygon", "coordinates": [[[-46.9889, -23.8008], [-47.0174, -23.8176], [-47.0288, -23.8462], [-47.0836, -23.8447], [-47.1291, -23.8606], [-47.1424, -23.9113], [-47.1843, -23.9299], [-47.2055, -23.9608], [-47.2, -24.0006], [-47.1271, -24.0087], [-47.056, -24.0096], [-47.0272, -24.0516], [-46.9786, -24.0643], [-46.9362, -24.0334], [-46.9003, -24.0461], [-46.8677, -24.0192], [-46.8831, -23.9852], [-46.8069, -23.9382], [-46.8107, -23.9205], [-46.7766, -23.8926], [-46.7626, -23.8279], [-46.8011, -23.8098], [-46.7774, -23.7672], [-46.796, -23.7391], [-46.8015, -23.6854], [-46.7927, -23.6472], [-46.8078, -23.6091], [-46.8173, -23.5819], [-46.876, -23.5653], [-46.9111, -23.5631], [-46.9815, -23.6022], [-47.0281, -23.5813], [-47.059, -23.6283], [-47.0815, -23.6532], [-47.0761, -23.6807], [-47.0193, -23.7885], [-46.9889, -23.8008]]]}, "properties": {"codarea": "35060", "nome": "Itapecerica da Serra", "valores": {"2023": 283952.0}, "escolas": {"2023": 776}}}, {"type": "Feature", "geometry": {"type": "Polygon", "coordinates": [[[-47.2767, -20.2916], [-47.2326, -20.2275], [-47.2311, -20.2192], [-47.2618, -20.1599], [-47.2964, -20.1459], [-47.3292, -20.1153], [-47.3716, -20.0859], [-47.4081, -20.0802], [-47.4403, -20.0488], [-47.4244, -20.0153], [-47.4633, -19.9658], [-47.4896, -19.9693], [-47.5492, -19.9938], [-47.5422, -20.0131], [-47.509, -20.0599], [-47.5196, -20.1071], [-47.5417, -20.1341], [-47.6091, -20.1596], [-47.5931, -20.1802], [-47.6192, -20.2189], [-47.6026, -20.2526], [-47.6106, -20.2773], [-47.6454, -20.2883], [-47.6185, -20.363], [-47.6262, -20.4072], [-47.6341, -20.4421], [-47.6152, -20.4817], [-47.6266, -20.4804], [-47.6448, -20.5153], [-47.7119, -20.5589], [-47.743, -20.5955], [-47.7141, -20.6264], [-47.6392, -20.671], [-47.6125, -20.7003], [-47.5982, -20.6931], [-47.5673, -20.7393], [-47.5091, -20.7249], [-47.4949, -20.748], [-47.4527, -20.7599], [-47.4121, -20.8091], [-47.3435, -20.8301], [-47.3274, -20.8589], [-47.2894, -20.8367], [-47.2461, -20.8646], [-47.2274, -20.8565], [-47.2269, -20.8555], [-47.2145, -20.8272], [-47.2249, -20.8009], [-47.1888, -20.7706], [-47.1862, -20.7314], [-47.1692, -20.7034], [-47.1267, -20.7093], [-47.101, -20.682], [-47.0975, -20.6439], [-47.1233, -20.6127], [-47.1428, -20.5656], [-47.1377, -20.5611], [-47.1442, -20.5408], [-47.1545, -20.5196], [-47.2235, -20.4911], [-47.291, -20.4505], [-47.2935, -20.4187], [-47.2855, -20.4057], [-47.2982, -20.3484], [-47.2767, -20.2916]]]}, "properties": {"codarea": "35012", "nome": "Franca", "valores": {"2023": 95119.0}, "escolas": {"2023": 318}}}, {"type": "Feature", "geometry": {"type": "Polygon", "coordinates": [[[-44.8826, -23.2027], [-44.8747, -23.1847], [-44.8244, -23.1627], [-44.8106, -23.1148], [-44.8188, -23.0915], [-44.8022, -23.0488], [-44.7919, -22.9819], [-44.7648, -22.9833], [-44.7435, -22.947], [-44.6387, -22.9142], [-44.6295, -22.9049], [-44.6951, -22.8903], [-44.7238, -22.8333], [-44.7047, -22.8034], [-44.754, -22.7886], [-44.8062, -22.8567], [-44.9104, -22.8856], [-44.9469, -22.9133], [-45.0293, -22.9207], [-45.082, -22.9645], [-45.1108, -23.0076], [-45.156, -23.0154], [-45.1969, -22.9984], [-45.2344, -23.0011], [-45.2577, -23.008], [-45.2942, -23.0271], [-45.3122, -23.0591], [-45.3001, -23.092], [-45.3285, -23.0851], [-45.3549, -23.1379], [-45.397, -23.1807], [-45.4674, -23.2246], [-45.5038, -23.2193], [-45.5222, -23.1763], [-45.5682, -23.1599], [-45.6095, -23.1635], [-45.6408, -23.196], [-45.7213, -23.2379], [-45.7766, -23.2641], [-45.7937, -23.292], [-45.803, -23.3294], [-45.7823, -23.3556], [-45.7545, -23.3891], [-45.7778, -23.4146], [-45.7641, -23.4408], [-45.7861, -23.4602], [-45.7888, -23.4929], [-45.7465, -23.5389], [-45.7396, -23.5833], [-45.7025, -23.6369], [-45.6373, -23.6219], [-45.6311, -23.6572], [-45.5805, -23.6465], [-45.54, -23.5968], [-45.5236, -23.6045], [-45.4867, -23.5726], [-45.4573, -23.5771], [-45.4439, -23.5561], [-45.3489, -23.5479], [-45.307, -23.496], [-45.2734, -23.4831], [-45.1757, -23.439], [-45.175, -23.3952], [-45.1174, -23.3549], [-45.0676, -23.343], [-45.0742, -23.3042], [-45.0096, -23.3061], [-45.0137, -23.2635], [-44.984, -23.2295], [-44.9569, -23.2417], [-44.9317, -23.2093], [-44.8826, -23.2027]]]}, "properties": {"codarea": "35053", "nome": "Paraibuna/Paraitinga", "valores": {"2023": 13158.0}, "escolas": {"2023": 89}}}, {"type": "Feature", "geometry": {"type": "Polygon", "coordinates": [[[-46.3948, -23.6125], [-46.3776, -23.5878], [-46.3923, -23.5305], [-46.3664, -23.5122], [-46.3867, -23.4747], [-46.4605, -23.483], [-46.5111, -23.4788], [-46.547, -23.5064], [-46.5705, -23.4588], [-46.5666, -23.4154], [-46.5354, -23.3633], [-46.6002, -23.3882], [-46.6343, -23.4293], [-46.6698, -23.4186], [-46.7004, -23.4225], [-46.7355, -23.3881], [-46.823, -23.401], [-46.8233, -23.4224], [-46.8007, -23.4704], [-46.7995, -23.4714], [-46.7748, -23.4644], [-46.76, -23.5292], [-46.7731, -23.5701], [-46.8064, -23.584], [-46.8078, -23.6091], [-46.7927, -23.6472], [-46.8015, -23.6854], [-46.796, -23.7391], [-46.7774, -23.7672], [-46.8011, -23.8098], [-46.7626, -23.8279], [-46.7766, -23.8926], [-46.8107, -23.9205], [-46.8069, -23.9382], [-46.7148, -23.9962], [-46.6833, -23.9824], [-46.6499, -24.0016], [-46.6119, -23.9678], [-46.5645, -23.9529], [-46.5405, -23.9235], [-46.4962, -23.8996], [-46.4103, -23.8154], [-46.3386, -23.7817], [-46.3203, -23.8031], [-46.2784, -23.7703], [-46.3219, -23.7444], [-46.3281, -23.7284], [-46.3307, -23.7089], [-46.3385, -23.6779], [-46.3834, -23.6177], [-46.3839, -23.6177], [-46.3948, -23.6125]]]}, "properties": {"codarea": "35061", "nome": "São Paulo", "valores": {"2023": 3254614.0}, "escolas": {"2023": 8741}}}, {"type": "Feature", "geometry": {"type": "Polygon", "coordinates": [[[-51.5371, -21.6844], [-51.5119, -21.7018], [-51.4965, -21.7074], [-51.4138, -21.6429], [-51.3879, -21.5713], [-51.3879, -21.5272], [-51.3588, -21.4545], [-51.3651, -21.3693], [-51.3361, -21.334], [-51.3288, -21.2925], [-51.3853, -21.2844], [-51.434, -21.2464], [-51.4855, -21.2325], [-51.5018, -21.2211], [-51.5234, -21.1996], [-51.5738, -21.1873], [-51.6137, -21.1417], [-51.6396, -21.1628], [-51.64, -21.1632], [-51.682, -21.1491], [-51.698, -21.0917], [-51.7725, -21.0511], [-51.7897, -21.1021], [-51.8236, -21.1268], [-51.8655, -21.1305], [-51.879, -21.1481], [-51.8797, -21.1979], [-51.8485, -21.2666], [-51.8611, -21.3367], [-51.8999, -21.3776], [-51.9287, -21.4558], [-51.9622, -21.4933], [-51.9638, -21.5232], [-51.9411, -21.547], [-51.8805, -21.5814], [-51.86, -21.5807], [-51.8428, -21.5784], [-51.7815, -21.6034], [-51.714, -21.596], [-51.6979, -21.6338], [-51.6539, -21.6427], [-51.6105, -21.6754], [-51.5371, -21.6844]]]}, "properties": {"codarea": "35034", "nome": "Dracena", "valores": {"2023": 24528.0}, "escolas": {"2023": 99}}}, {"type": "Feature", "geometry": {"type": "Polygon", "coordinates": [[[-50.4302, -20.4123], [-50.4458, -20.483], [-50.373, -20.4727], [-50.3113, -20.4694], [-50.2852, -20.4698], [-50.2258, -20.4951], [-50.2029, -20.4814], [-50.1357, -20.4235], [-50.1392, -20.387], [-50.0922, -20.3747], [-50.0814, -20.3104], [-50.0778, -20.3045], [-50.0715, -20.246], [-50.0322, -20.2028], [-50.0277, -20.1817], [-50.0227, -20.1359], [-50.0354, -20.0844], [-50.0741, -20.0716], [-50.1111, -20.0378], [-50.0558, -19.9813], [-50.0441, -19.9164], [-50.1062, -19.8743], [-50.1718, -19.8755], [-50.2157, -19.8666], [-50.2452, -19.8768], [-50.3374, -19.8695], [-50.4171, -19.8011], [-50.4541, -19.7862], [-50.4799, -19.8268], [-50.4735, -19.8688], [-50.4411, -19.9323], [-50.4333, -19.9837], [-50.4659, -20.0222], [-50.518, -20.0293], [-50.5192, -20.0359], [-50.5191, -20.0674], [-50.481, -20.1535], [-50.4507, -20.1589], [-50.4664, -20.1956], [-50.4658, -20.2369], [-50.4583, -20.2738], [-50.468, -20.3153], [-50.4687, -20.3905], [-50.4302, -20.4123]]]}, "properties": {"codarea": "35002", "nome": "Fernandópolis", "valores": {"2023": 22365.0}, "escolas": {"2023": 93}}}, {"type": "Feature", "geometry": {"type": "Polygon", "coordinates": [[[-48.3837, -20.5372], [-48.3446, -20.5753], [-48.4099, -20.5755], [-48.4323, -20.5611], [-48.4781, -20.5832], [-48.5257, -20.6351], [-48.4879, -20.6368], [-48.4915, -20.6938], [-48.4371, -20.7527], [-48.4196, -20.7496], [-48.3383, -20.6955], [-48.32, -20.7255], [-48.2967, -20.7202], [-48.2606, -20.7383], [-48.2435, -20.7766], [-48.2552, -20.8063], [-48.2404, -20.8514], [-48.2077, -20.8754], [-48.179, -20.8873], [-48.1037, -20.9001], [-48.0579, -20.9304], [-48.0349, -20.9054], [-47.9854, -20.8764], [-47.9397, -20.8999], [-47.9227, -20.883], [-47.8902, -20.9096], [-47.8706, -20.8945], [-47.8401, -20.9107], [-47.8182, -20.8943], [-47.7797, -20.8944], [-47.773, -20.8558], [-47.7182, -20.8153], [-47.6629, -20.8203], [-47.6497, -20.7707], [-47.6508, -20.7211], [-47.6125, -20.7003], [-47.6392, -20.671], [-47.7141, -20.6264], [-47.743, -20.5955], [-47.7883, -20.581], [-47.8091, -20.5428], [-47.8366, -20.5353], [-47.881, -20.4353], [-47.9166, -20.434], [-47.9144, -20.4165], [-47.9524, -20.381], [-48.0386, -20.3626], [-48.04, -20.3533], [-47.9834, -20.2803], [-47.924, -20.2429], [-47.9288, -20.2142], [-47.8895, -20.1558], [-47.8994, -20.1257], [-47.9315, -20.1104], [-47.946, -20.0605], [-47.9812, -20.0364], [-48.0011, -20.1013], [-48.0202, -20.124], [-48.0768, -20.1484], [-48.1055, -20.1464], [-48.1786, -20.0962], [-48.2034, -20.0455], [-48.2285, -20.0282], [-48.2534, -20.0779], [-48.2186, -20.1279], [-48.2651, -20.1438], [-48.3154, -20.1138], [-48.3749, -20.1231], [-48.4058, -20.1135], [-48.4516, -20.1259], [-48.4911, -20.1381], [-48.5374, -20.1336], [-48.5932, -20.1358], [-48.6469, -20.167], [-48.5935, -20.175], [-48.5764, -20.2054], [-48.52, -20.2459], [-48.5101, -20.2987], [-48.4819, -20.3514], [-48.4779, -20.4281], [-48.4466, -20.4596], [-48.4044, -20.5252], [-48.3837, -20.5372]]]}, "properties": {"codarea": "35010", "nome": "São Joaquim da Barra", "valores": {"2023": 43610.0}, "escolas": {"2023": 180}}}, {"type": "Feature", "geometry": {"type": "Polygon", "coordinates": [[[-47.0815, -23.6532], [-47.1387, -23.6394], [-47.179, -23.6411], [-47.2053, -23.6167], [-47.2502, -23.6203], [-47.2773, -23.5972], [-47.2968, -23.6037], [-47.3371, -23.6116], [-47.3684, -23.6338], [-47.4045, -23.6212], [-47.4542, -23.6255], [-47.4942, -23.65], [-47.4883, -23.6849], [-47.5526, -23.7227], [-47.5779, -23.757], [-47.6187, -23.7567], [-47.6345, -23.7074], [-47.6654, -23.7429], [-47.7098, -23.7139], [-47.7899, -23.7553], [-47.8485, -23.7495], [-47.8657, -23.7833], [-47.9232, -23.7931], [-47.944, -23.7542], [-47.9968, -23.7433], [-48.0286, -23.7675], [-48.0521, -23.7559], [-48.0949, -23.7985], [-48.1518, -23.8405], [-48.2075, -23.8495], [-48.1884, -23.8567], [-48.1669, -23.9222], [-48.1212, -23.9678], [-48.1251, -24.0143], [-48.0851, -24.0077], [-48.0396, -24.0306], [-47.9977, -24.0739], [-47.9804, -24.0755], [-47.9531, -24.1198], [-47.8948, -24.0793], [-47.8633, -24.114], [-47.7727, -24.1344], [-47.6803, -24.0453], [-47.6138, -24.0447], [-47.636, -24.1005], [-47.584, -24.0763], [-47.5628, -24.0396], [-47.4988, -24.0529], [-47.4773, -24.0813], [-47.452, -24.0516], [-47.4261, -24.0691], [-47.373, -24.0453], [-47.3552, -24.0218], [-47.3122, -24.0097], [-47.244, -24.0218], [-47.2, -24.0006], [-47.2055, -23.9608], [-47.1843, -23.9299], [-47.1424, -23.9113], [-47.1291, -23.8606], [-47.0836, -23.8447], [-47.0288, -23.8462], [-47.0174, -23.8176], [-46.9889, -23.8008], [-47.0193, -23.7885], [-47.0761, -23.6807], [-47.0815, -23.6532]]]}, "properties": {"codarea": "35045", "nome": "Piedade", "valores": {"2023": 43828.0}, "escolas": {"2023": 199}}}, {"type": "Feature", "geometry": {"type": "Polygon", "coordinates": [[[-49.5177, -21.2281], [-49.5724, -21.2711], [-49.5875, -21.3622], [-49.6284, -21.3544], [-49.5834, -21.3795], [-49.5471, -21.4227], [-49.4845, -21.5035], [-49.4455, -21.5241], [-49.4117, -21.5444], [-49.379, -21.5348], [-49.3285, -21.559], [-49.3115, -21.6172], [-49.2733, -21.659], [-49.2386, -21.6708], [-49.2133, -21.6711], [-49.2412, -21.6242], [-49.1875, -21.5959], [-49.1559, -21.5559], [-49.1502, -21.5302], [-49.0822, -21.4645], [-49.0548, -21.4885], [-49.0194, -21.4823], [-48.9914, -21.4562], [-48.9792, -21.4161], [-48.9002, -21.3706], [-48.9233, -21.3452], [-48.9201, -21.2996], [-48.9595, -21.2789], [-48.9937, -21.2861], [-49.0106, -21.2534], [-49.0591, -21.2422], [-49.0913, -21.2212], [-49.1094, -21.1973], [-49.1449, -21.1874], [-49.1533, -21.1847], [-49.1846, -21.1454], [-49.2269, -21.1245], [-49.2548, -21.1349], [-49.3163, -21.1271], [-49.3418, -21.154], [-49.3772, -21.157], [-49.3969, -21.1805], [-49.4422, -21.1889], [-49.4602, -21.1773], [-49.4615, -21.1962], [-49.5024, -21.2059], [-49.5177, -21.2281]]]}, "properties": {"codarea": "35008", "nome": "Novo Horizonte", "valores": {"2023": 17072.0}, "escolas": {"2023": 67}}}, {"type": "Feature", "geometry": {"type": "Polygon", "coordinates": [[[-46.9786, -24.0643], [-47.0272, -24.0516], [-47.056, -24.0096], [-47.1271, -24.0087], [-47.1628, -24.0237], [-47.1605, -24.0526], [-47.2273, -24.0822], [-47.2674, -24.115], [-47.2883, -24.1621], [-47.2728, -24.1827], [-47.2955, -24.2223], [-47.2869, -24.2778], [-47.3324, -24.2881], [-47.3195, -24.3395], [-47.3003, -24.3599], [-47.2474, -24.3618], [-47.2344, -24.3765], [-47.1878, -24.3662], [-47.1208, -24.3648], [-47.1177, -24.4176], [-47.0779, -24.4482], [-47.0036, -24.409], [-47.0182, -24.3788], [-46.9939, -24.3254], [-46.8976, -24.2529], [-46.8446, -24.2184], [-46.7094, -24.1441], [-46.6044, -24.0897], [-46.6089, -24.0378], [-46.5931, -23.9975], [-46.6425, -24.0102], [-46.6499, -24.0016], [-46.6833, -23.9824], [-46.7148, -23.9962], [-46.8069, -23.9382], [-46.8831, -23.9852], [-46.8677, -24.0192], [-46.9003, -24.0461], [-46.9362, -24.0334], [-46.9786, -24.0643]]]}, "properties": {"codarea": "35056", "nome": "Itanhaém", "valores": {"2023": 68603.0}, "escolas": {"2023": 228}}}, {"type": "Feature", "geometry": {"type": "Polygon", "coordinates": [[[-49.957, -20.9069], [-49.9231, -20.9204], [-49.8824, -20.9171], [-49.8508, -20.9319], [-49.8273, -20.9537], [-49.7924, -20.9341], [-49.7264, -20.9321], [-49.696, -20.9657], [-49.635, -20.9717], [-49.6268, -20.88], [-49.5734, -20.8639], [-49.5631, -20.822], [-49.5762, -20.7892], [-49.6259, -20.7577], [-49.6052, -20.7074], [-49.649, -20.6903], [-49.7088, -20.6367], [-49.7752, -20.6162], [-49.7915, -20.5926], [-49.8386, -20.6144], [-49.8707, -20.5907], [-49.9231, -20.562], [-49.9828, -20.5723], [-50.0171, -20.5389], [-50.071, -20.5415], [-50.1202, -20.5217], [-50.1286, -20.5574], [-50.114, -20.6003], [-50.0885, -20.6307], [-50.123, -20.683], [-50.1141, -20.7635], [-50.1213, -20.8311], [-50.1639, -20.8749], [-50.0924, -20.8871], [-50.0507, -20.9315], [-50.0224, -20.9436], [-50.0329, -20.9784], [-49.9937, -20.9498], [-49.9755, -20.9108], [-49.957, -20.9069]]]}, "properties": {"codarea": "35007", "nome": "Nhandeara", "valores": {"2023": 12810.0}, "escolas": {"2023": 61}}}], "meta": {"variavel": "QT_MAT_BAS", "descricao": "Número de Matrículas da Educação Básica", "natureza": "contagem", "agregacao": "soma", "categoria": null, "anos": [2023], "grao": "microrregiao", "fonte_malha": "https://servicodados.ibge.gov.br/api/v3/malhas/estados/35?qualidade=minima&intrarregiao=microrregiao&formato=application/vnd.geo+json", "gerado_em": "2026-08-18", "cobertura": {"areas_na_malha": 63, "areas_com_dado": 63, "codigos_sem_poligono": [], "n_codigos_sem_poligono": 0}}}